Store Name,Address,Timings,Phone Number,Latitude,Longitude
 PH SS Mall Prodattur ,"No 7/834, Ground Floor, SSS Mall, YMR Colony, Korrapadu Road, Proddatur - 516360",Open until 11:00 PM,18002022022,14.755611,78.556644
 PH STV Nagar Tirupati ,"19/4/121/C, Ground Floor & 1st Floor, AIR Bypass Road, STV Nagar, Tirupati - 517501",Open until 11:00 PM,18002022022,13.622694,79.424271
 Pizza hut - Tirupathi ,"D No 20/3/35B, Siva Jyoti Nagar, Tirupati - 517501",Open until 11:00 PM,18002022022,13.645894,79.4274201
 PH TGV City Square Mall Kurnool ,"D No 40/37M, Sy 177 & 192, 4A, TGV Mall, River View Colony, Bhagya Nagar, Kurnool - 518004",Open until 11:00 PM,18002022022,15.826952,78.035242
 PH Guru Nanak Colony Vijayawada ,"No 24, Gr Flr, Surya Prakash Square, Guru Nanak Colony, Guru Nanak Colony Road, Vijayawada - 520002",Open until 11:00 PM,18002022022,16.50488355,80.66210415
 PH Eluru Road Vijayawada ,"Machavaram, Eluru Rd, Chuttugunta, Krishna - 520004",Open until 11:00 PM,18002022022,16.51728036,80.64383984
 PH Kanuru Vijayawada ,"Main Road, Machilipatnam Road, Kanuru, Vijayawada - 520007",Open until 11:00 PM,18002022022,16.48251334,80.68914544
 Labbipet ,"39 & 1, SN 3F & 1 & 3, PVP Square Mall, Level 3, MG Road, Labbipet, Vijayawada - 520010",Open until 11:00 PM,18002022022,16.5025591,80.6426114
 PH MG Road Vijayawada ,"Lower Ground Floor, KK Towers, MG Road, Acharya Ranga Nagar, Vijayawada - 520010",Open until 11:00 PM,18002022022,16.4990277,80.65181099
 Bhavnipuram ,"RS No 35/1, Ground Floor, Crombway Road, Vijayawada - 520012",Open until 11:00 PM,18002022022,16.533637,80.597793
 PH Tadepalli Vijayawada ,"Sy No 114/C3, Eswar Elite, NH 16, Service Road, Tadepalli, Guntur - 522501",Open until 11:00 PM,18002022022,16.48216267,80.61879152
 Prakasam ,"119/1A, SN FC1, Ravi Priya Mall, Gr Flr, Guntur Road, Prakasam, Prakasam - 523262",Open until 11:00 PM,18002022022,15.5198422,80.0472141
 PH Mini bypass Nellore ,"Jitendra Towers, Minibypass, Ramamurthy Nagar, Nellore - 524001",Open until 11:00 PM,18002022022,14.44892319,79.98834068
 Ambedkar Ngr ,"No 15 & 23, Gr Flr, MGB Felicity Mall, No FO/4 & FO/5, WN 24, GT Rd, Ambedkar Ngr, Nellore - 524003",Open until 11:00 PM,18002022022,14.432297,79.96707001
 Pizza hut - Nellore ,"Vedayapalem Centre, MGR Kalyana Mandapam, Andhrakesari Nagar, Nellore - 524004",Open until 11:00 PM,18002022022,14.410303,79.955767
 Dwarka Nagar ,"Door No 471023/3, Isnar Khazana Towers, 2nd Lane, Dwarka Nagar, Visakhapatnam - 530003",Open until 11:00 PM,18002022022,17.7264217,83.3052748
 Maddilapalam ,"4th Floor, CMR Central, Resapuvanipalem, Maddilapalam, Visakhapatnam - 530013",Open until 11:00 PM,18002022022,17.7336313,83.3180569
 PH CMR Mall Gajuwaka Vizag ,"CMR Mall, Exhibition Ground, GNT Road, Gajuwaka, Visakhapatnam - 530013",Open until 11:00 PM,18002022022,17.68306173,83.20117477
 PH-MVP Colony ,"Door No 1/83/13, Plot No HIG 2/3, Peda Waltair, MVP Colony, Sector 3, Visakhapatnam - 530017",Open until 11:00 PM,18002022022,17.742297,83.331074
 PH Gopalapatnam Visakhapatnam ,"D No 9/45/1, Simhachalam Rd, Gopalapatnam, Simhachalam, Visakhapatnam - 530027",Open until 11:00 PM,18002022022,17.75260261,83.21847553
 PH Madhurwada ,"No 3 & 4, Gr Flr, SVS Singana Plaza, Car Shed Junction, PM Palem, Visakhapatnam - 530041",Open until 11:00 PM,18002022022,17.802468,83.353499
 PH Duvvada Visakhapatnam ,"30/77/17, Kanitha Gandhi Statue, R H Col, Vuda Col, Duvada Station Rd, Kurmannapalem, Visakhapatnam - 530046",Open until 11:00 PM,18002022022,17.69684835,83.16283432
 Ramanayyapeta ,"No 4/21, 82 East, SRMT Mall & Multiplex, Pithapuram Kakinada Road, Ramanayyapeta, Kakinada - 533005",Open until 11:00 PM,18002022022,16.997969,82.243554
 Gandhi Puram 3 ,"House No 78/9/11/2, Gandhi Puram 3, Rajahmundry - 533103",Open until 11:00 PM,18002022022,17.005112,81.787878
 PH JP Road Bhimavaram ,"No 7/213, JP Road, Bhimavaram - 534204",Open until 11:00 PM,18002022022,16.5417801,81.50230019
 PH Vizianagaram ,"No 102 & 103, Teja Plaza, 100ft Ring Road, Dharmapuri, Vizianagaram - 535002",Open until 11:00 PM,18002022022,18.102642,83.415964
 PH Zero Points Tinali Itanagar ,"Zero Point Tinali, NH 52A, Cona County, Itanagar - 791113",Open until 11:00 PM,18002022022,27.10135868,93.6287529
 GS Road ,"SN 1&2, 1st Flr, Dona Planet, GS Road, Guwahati - 781005",Open until 11:00 PM,18002022022,26.161401,91.76976002
 Hatigaon ,"Dag No 401 & 1443, Hatigaon, Guwahati - 781005",Open until 11:00 PM,18002022022,26.1417801,91.7864801
 PH NCS Square Mall Adabari ,"Unit No 2, Food Court, NCS Square Mall, Assam Trunk Road, Adabari, Guwahati - 781014",Open until 11:00 PM,18002022022,26.1583462,91.6803797
 Ganeshguri ,"SN 5 to 7, 3rd Floor, City Center Mall, Christian Basti, GS Road, Ganeshguri, Kamrup - 781019",Open until 11:00 PM,18002022022,26.1549781,91.7819557
 PH Lal Ganesh Guwahati ,"Lal Ganesh, Lokhra Road, Ganapati Nagar, Kamrup - 781032",Open until 11:00 PM,18002022022,26.144267,91.741502
 PH KRC Plaza Tezpur ,"KRC Plaza, Tezpur Main Rd, Kacharigaon, Mahabhairab, Tezpur - 784001",Open until 11:00 PM,18002022022,26.625935,92.789873
 PH Junction Mall Dibrugarh ,"Shop No G2 & 5, Junction Mall, RKB Path, Dibrugarh - 786001",Open until 11:00 PM,18002022022,27.479675,94.905053
 PH Tinsukhia Assam ,"S No G167, Ground Floor, Prithvi Tower, Devi Pokhari Road, Tinsukia - 786125",Open until 11:00 PM,18002022022,27.49201959,95.36012231
 Kanakpur ,"T39, 3rd Floor, Goldighi Mall, Central Road, Janiganj Bazar, Kanakpur, Silchar - 788001",Open until 11:00 PM,18002022022,24.8229454,92.7995694
 PH Sri Krishna Puri Patna ,"No B8, Children's Park Road, Sri Krishna Puri, Patna - 800001",Open until 11:00 PM,18002022022,25.61149914,85.11584545
 PH Ambuja City Centre Mall Patna ,"3rd Flr, Ambuja City Centre Mall, Christian Colony, Chajju Bagh, Patna - 800001",Open until 11:00 PM,18002022022,25.61767492,85.1355466
 Kurji ,"T16 & T17, 3rd Flr, P&M Mall, Patliputra Colony, Kurji, Patna - 800013",Open until 11:00 PM,18002022022,25.633986,85.106268
 PH P and M Mall Patna ,"No T1, Plot No C20P & C21, P & M Mall, Patliputra Kurji Road, Patliputra Col, Patna - 800013",Open until 11:00 PM,18002022022,25.63408326,85.1063725
 PH P and M Mall Patna ,"No T1, Plot No C20P & C21, P & M Mall, Patliputra Kurji Road, Patliputra Col, Patna - 800013",Open until 11:00 PM,18002022022,25.63408326,85.1063725
 Rajinder Nagar ,"Sri Ram Enclave, Arya Kumar Road, Block B, Rajinder Nagar, Patna - 800016",Open until 11:00 PM,18002022022,25.6080176,85.159187
 Ashiana Rd ,"Gr Flr, Tawheed Complex, Ashiana Rd, Patna - 800025",Open until 11:00 PM,18002022022,25.6159823,85.0823438
 PH Gola Road Patna ,"Belle Matrix Saloon, Bailey Road, Gola Road, Danapur, Patna - 801503",Open until 11:00 PM,18002022022,25.616919,85.056873
 Bhagalpur ,"Rajbir Tower, Tilkamajhi Chowk, RBSS Road, Bhagalpur, Bhagalpur - 812001",Open until 11:00 PM,18002022022,25.2562322,86.9956979
 New Colony ,"Ground Floor, Yamuna Complex, Mithanpura Chowk, New Colony, Muzaffarpur - 842001",Open until 11:00 PM,18002022022,26.120889,85.364621
 PH Bhawanipur Zirat Motihari ,"S & U Arcade, Bhawanipur Zirat, Arya Samaj Rd, Motihari, Motihari - 845401",Open until 11:00 PM,18002022022,26.647121,84.927327
 PH Navratan Hata Purnia ,"Ford Company Chowk, NH 31, Navratan Hata, Purnia - 854302",Open until 11:00 PM,18002022022,25.77990286,87.47911693
 PH Elante Mall Chandigarh ,"No 303A, Plot No 178 & 178A, 3rd Flr, Phase 1, Industrial Area, Chandigarh - 160002",Open until 11:00 PM,18002022022,30.70566018,76.80111126
 PH Sector 26 Chandigarh ,"SCO 41, Ground Floor, Madhya Marg, Sector 26, Chandigarh - 160019",Open until 11:00 PM,18002022022,30.7252511,76.80597323
 Sector 35B ,"SCO 345, Sector 35B, Chandigarh - 160035",Open until 11:00 PM,18002022022,30.72439167,76.764725
 Sector 40C ,"SCO 86, Basement & Ground Floor, Sector 40C, Chandigarh - 160036",Open until 11:00 PM,18002022022,30.735754,76.735279
 Surya Vihar ,"UGF, Surya Treasure Island, Surya Vihar, Bhilai - 490020",Open until 11:00 PM,18002022022,21.2184158,81.320376
 PH-Durg ,"Khasra No 139/27, Omisha's Sanctum, Main Road, Adarsh Nagar, Durg - 491001",Open until 11:00 PM,18002022022,21.173341,81.293881
 Jail Road ,"Shop No 1 & 2, Raheja Tower, Fafadhi Chowk, Jail Road, Raipur - 492001",Open until 11:00 PM,18002022022,21.256565,81.63702001
 PH Lake Front ,"Jal Vihar Colony, Marine Drive, Lake Front, Telibanda, Raipur - 492001",Open until 11:00 PM,18002022022,21.239031,81.660921
 PH Ambuja City Center Raipur ,"C132/133, 1st Floor, Ambuja City Centre, Main Vidhan Sabha Road, Mowa, Raipur - 492007",Open until 11:00 PM,18002022022,21.2753282,81.68730135
 PH GE Road ,"Plot No 27, Ground Floor, GE Road, Raipur - 492010",Open until 11:00 PM,18002022022,21.243937,81.607688
 Talapara ,"2nd Floor, Food Court, Rama Magneto Mall, Talapara, Bilaspur - 495004",Open until 11:00 PM,18002022022,22.0716417,82.149254
 PH Wea Tank Road Karol Bagh ,"No 17A & 54, Ajmal Khan Road, Block 10, WEA Tank Road, Karol Bagh, New Delhi - 110005",Open until 11:00 PM,18002022022,28.64597061,77.19064141
 Kamla Nagar ,"No FC 14, E116, Spark Mall, Block C, Bungalow Road, Kamla Nagar, New Delhi - 110007",Open until 11:00 PM,18002022022,28.681191,77.203866
 PH Nangia Park Delhi ,"No 29/6, Nangia Park Chowk, Shakti Nagar, New Delhi - 110007",Open until 11:00 PM,18002022022,28.67936237,77.1955185
 Dr Mukherjee Nagar ,"GF 2012, Ground Floor, Kingsway Camp, GTB Nagar, Outram Line, Dr Mukherjee Nagar, New Delhi - 110009",Open until 11:00 PM,18002022022,28.699494,77.208006
 Kirti Nagar ,"SN 25, Tagore Market, Kirti Nagar, New Delhi - 110015",Open until 11:00 PM,18002022022,28.65472742,77.13763867
 Malviya Nagar ,"SN 17 & 18, Corner Market, Malviya Nagar, New Delhi - 110017",Open until 11:00 PM,18002022022,28.53863026,77.21382413
 Saket ,"No 29, Community Centre, Saket, New Delhi - 110017",Open until 11:00 PM,18002022022,28.5231591,77.2078467
 Nehru Place ,"Shop No 8 & 9, Satyam Cinema, Nehru Place, New Delhi - 110019",Open until 11:00 PM,18002022022,28.55013283,77.25083493
 Vikaspuri ,"G8, Sonia Theatres, Community Centre, Vikaspuri, New Delhi - 110019",Open until 11:00 PM,18002022022,28.63883605,77.07450785
 Kalkaji ,"L 15, CR Park Main Road, Kalkaji, New Delhi - 110019",Open until 11:00 PM,18002022022,28.53708773,77.25741422
 PH Satya Niketan Delhi ,"Shop No 123 & 124, Satya Niketan, New Delhi - 110021",Open until 11:00 PM,18002022022,28.58826346,77.16831046
 Lajpat Nagar 2 ,"K95, Veer Savarkar Marg, Lajpat Nagar 2, New Delhi - 110024",Open until 11:00 PM,18002022022,28.56745556,77.24691111
 Jasola ,"Unit No 15B, 16 Splendor Forum, District Centre, Jasola, New Delhi - 110025",Open until 11:00 PM,18002022022,28.5374901,77.286841
 PH Club Road Punjabi Bagh ,"No 18 NWA, CH Balbir Singh Marg, Club Road, West Punjabi Bagh, New Delhi - 110026",Open until 11:00 PM,18002022022,28.666555,77.122311
 Rajouri Garden ,"J 13/37, Keshav Marg, Rajouri Garden, New Delhi - 110027",Open until 11:00 PM,18002022022,28.64017257,77.1197651
 Subhash Nagar ,"2nd Floor, Pacific Mall, Food Court, Subhash Nagar, New Delhi - 110027",Open until 11:00 PM,18002022022,28.642209,77.106347
 Rajouri Garden ,"No 10, Eros TDI Mall, Vishal Enclave, Vishal Cinema Road, Rajouri Garden, New Delhi - 110027",Open until 11:00 PM,18002022022,28.6508501,77.120592
 Shahdara ,"Shop No 14 & 15, Aggarwal Funcity Mall, Plot No 30 & 31, Shahdara, New Delhi - 110032",Open until 11:00 PM,18002022022,28.660757,77.297612
 PH Cross River Mall Shahdara ,"Unit No G09, Cross River Mall, Vishwas Nagar Extension, Shahdara, New Delhi - 110032",Open until 11:00 PM,18002022022,28.65742062,77.30249938
 PH Durgapuri Shahdara ,"No C543, Main 100 Feet Rd, Chhajjupur, Babarpur, Durgapuri, Shahadra, New Delhi - 110032",Open until 11:00 PM,18002022022,28.68946553,77.28560543
 PH Adarsh Nagar Delhi ,"No B 45, Rajan Babu Road, Adarsh Nagar, New Delhi - 110033",Open until 11:00 PM,18002022022,28.71867352,77.17283406
 Rani Bagh ,"No 08, Ground Floor, PP City Centre, Pitampura, Rani Bagh, New Delhi - 110034",Open until 11:00 PM,18002022022,28.689342,77.134666
 IGI Airport ,"Terminal 2, IGI Airport, New Delhi - 110037",Open until 11:00 PM,18002022022,28.5562187,77.0954561
 PH IGI T3 Metro station ,"Shop No 1, Level 1, Terminal 3, Metro Station IGI Airport, New Delhi - 110037",Open until 11:00 PM,18002022022,28.55751801,77.08725408
 IGI Airport ,"No 11, 2nd Floor, Food Court, Aerocity, World Mark 1, IGI Airport, New Delhi - 110037",Open until 11:00 PM,18002022022,28.550658,77.121874
 PH Devli Road New Delhi ,"No D139, Devli Road, Krishna Nagar, New Delhi - 110044",Open until 11:00 PM,18002022022,28.507386,77.232224
 Najafgarh ,"Plot No 25, Khasra No 503, Ground Floor, Block B, Najafgarh, New Delhi - 110045",Open until 11:00 PM,18002022022,28.6080083,76.98784002
 Mahavir Enclave ,"Shop No 4 & 5, RZ A1, Palam Dabri Road, Mahavir Enclave, New Delhi - 110045",Open until 11:00 PM,18002022022,28.6000401,77.081901
 August Kranti Marg ,"BG 05, Ground Floor, Ansal Plaza Mall, Khel Gaon, August Kranti Marg, New Delhi - 110049",Open until 11:00 PM,18002022022,28.56268512,77.22452078
 PH Geeta Colony New Delhi ,"No 30A, Ground Floor, Patparganj Road, Geeta Colony, New Delhi - 110051",Open until 11:00 PM,18002022022,28.653955,77.277229
 Ashok Vihar Phase 2 ,"B 2/3, Ground Floor, Ashok Vihar Phase 2, New Delhi - 110052",Open until 11:00 PM,18002022022,28.69302582,77.17782654
 PH Yamuna Vihar Delhi ,"No C3/59A, Ground Floor, Service Ln, Blk C, Yamuna Vihar, Shahdara, New Delhi - 110053",Open until 11:00 PM,18002022022,28.701752,77.279521
 Prem Nagar ,"No 16 & 4, Prem Nagar, New Delhi - 110058",Open until 11:00 PM,18002022022,28.6360029,77.09621765
 Janakpuri ,"Plot No 19, Satyam Janak Palace, District Centre, Janakpuri, New Delhi - 110058",Open until 11:00 PM,18002022022,28.62980077,77.08227854
 Uttam Nagar ,"Mohan Bhagwati Complex, Plot No 6 & 7, Uttam Nagar, New Delhi - 110059",Open until 11:00 PM,18002022022,28.61985556,77.03491944
 Paschim Vihar ,"SNo 10, Ground Floor, Block A6, Paschim Vihar, New Delhi - 110063",Open until 11:00 PM,18002022022,28.67436378,77.10387301
 PH New Friends Colony ,"Shop No 9, C Block, DDA Market, New Friends Colony, New Delhi - 110065",Open until 11:00 PM,18002022022,28.569454,77.268181
 Vasant Kunj ,"Shop No 15, Vasant Square Mall, Vasant Kunj, New Delhi - 110070",Open until 11:00 PM,18002022022,28.5241061,77.155886
" Dwarka, Sector 20 ","Plot No 23, Main Market, Dwarka, Sector 20, New Delhi - 110075",Open until 11:00 PM,18002022022,28.56830838,77.06292611
 PH Ramphal Chowk Dwarka ,"No E561B, Palam Extension, Ramphal Chowk, Dwarka, Sector 7, New Delhi - 110077",Open until 11:00 PM,18002022022,28.58389886,77.0715898
 PH City Centre Mall Sec 12 Dwarka ,"No G22 & 51, PN 5, Hashtag Food Court, Pocket 8, Block B, Dwarka, Sector 12, New Delhi - 110077",Open until 11:00 PM,18002022022,28.592341,77.0413775
" Dwarka, Sector 14 ","Plot No 06, T 301, Vegas Mall, Pocket 1, Dwarka, Sector 14, New Delhi - 110078",Open until 11:00 PM,18002022022,28.601095,77.028976
 PH Sector 11 Rohini ,"Unit No 1 & 1B, Garg Trade Centre, Plot No 6, Rohini, Sector 11, New Delhi - 110085",Open until 11:00 PM,18002022022,28.73449488,77.11392746
" Rohini, Sector 14 ","G 19 & 20, Ground Floor, Fun City Mall, Prashant Vihar, Rohini, Sector 14, New Delhi - 110085",Open until 11:00 PM,18002022022,28.71248999,77.13620469
 Dilshad Garden ,"Shop No 5A, Metro Station, Dilshad Garden, New Delhi - 110085",Open until 11:00 PM,18002022022,28.67596071,77.32070614
" Rohini, Sector 3 ","No 17, Aggarwal City Plaza, Mangalam Place, Rohini, Sector 3, New Delhi - 110085",Open until 11:00 PM,18002022022,28.70073493,77.11719386
" Rohini, Sector 10 ","G 9, 10, 1/B5, D Mall, District Centre, Rohini, Sector 10, New Delhi - 110085",Open until 11:00 PM,18002022022,28.7162569,77.1141827
 Sector 10 & 11 ,"FA 7/8, Rohini Metro Walk, Sector 10 & 11, New Delhi - 110085",Open until 11:00 PM,18002022022,28.724101,77.11366944
 PH Pandav Nagar Mayur Vihar ,"No P37/38, Phase 1, Pandav Nagar, Mayur Vihar, New Delhi - 110091",Open until 11:00 PM,18002022022,28.60814175,77.29258368
 Mandawali ,"Plot No 11, Gr Flr, LSC Shopping Complex, Fazalpur, Mandawali, New Delhi - 110092",Open until 11:00 PM,18002022022,28.6303034,77.3012447
 Laxmi Nagar ,"Shop No 103, 1st Floor, V3S Mall, District Center, Laxmi Nagar, New Delhi - 110092",Open until 11:00 PM,18002022022,28.6368538,77.2862815
 Bardez ,"Amara Apartment, Naika Vaddo, Calangute, Bardez, North Goa - 403516",Open until 11:00 PM,18002022022,15.536344,73.7644901
 Calungunte ,"House No 6/232, Cobra Vaddo, Calangute Baga Road, Bardez, North Goa - 403516",Open until 11:00 PM,18002022022,15.5529258,73.7580198
 Alto Porvorim ,"House No 250B, NH 66, Alto Porvorim, Porvorim - 403521",Open until 11:00 PM,18002022022,15.5317214,73.8240407
 Fatorda ,"E1 to E4,E13 to E16, Osia Commercial Arc, E Wing, SGPDA Market Complex, Margao - 403601",Open until 11:00 PM,18002022022,15.285504,73.958392
 150 Feet Ring Road ,"SN 6, Ground Floor, Solitaire Building, 150 Feet Ring Road, Rajkot - 360005",Open until 11:00 PM,18002022022,22.28288001,70.77471001
 PH HB Empire Jamnagar ,"Shop No 1, Ground Floor, HB Empire, PN Marg, Jamnagar, Jamnagar - 361008",Open until 11:00 PM,18002022022,22.479446,70.062303
 Waghwadi Road ,"Ground Floor, Swarnadeep Building, Waghwadi Road, Bhavnagar - 364001",Open until 11:00 PM,18002022022,21.76439001,72.14722001
 PH Gandhidham ,"Unit No 1 & 2, Gr Flr, Aura Building, PN 23, Ward 6 Commercial, Airport Road, Gandhidham - 370201",Open until 11:00 PM,18002022022,23.076301,70.107309
 PH Maninagar ,"SN 1, Gr Flr, Rajdeep Dream Building, Pushpakunj, Maninagar, Ahmedabad - 380008",Open until 11:00 PM,18002022022,23.0020345,72.599225
 Ashram Road ,"No 956, Grnd Flr, City Gold Multiplex, Ashram Road, Ahmedabad - 380009",Open until 11:00 PM,18002022022,23.03206707,72.57022329
 Vastapur Lake ,"TP No 1, 3rd Floor, Alpha One Mall, FP No 216, Vastapur Lake, Ahmedabad - 380015",Open until 11:00 PM,18002022022,23.040211,72.530881
 Naryanpura ,"Shop No 6, Ground Floor, Shivalik Yash, 132 Feet Ring Road, Naryanpura, Ahmedabad - 380015",Open until 11:00 PM,18002022022,23.0619459,72.55306754
 PH IIM Road Ambawadi ,"Ground Floor, Shivalik Plaza, Ambawadi, Ahmedabad - 380015",Open until 11:00 PM,18002022022,23.028619,72.542379
 Prahlad Nagar ,"A 8, Ground Floor, Tower A, Safal Pegasus, Prahlad Nagar, Ahmedabad - 380051",Open until 11:00 PM,18002022022,23.01243001,72.51115001
 SP Ring Road ,"Amrapali Axiom, SP Ring Road, Ahmedabad - 380058",Open until 11:00 PM,18002022022,23.0266872,72.476956
 PIZZA HUT Science City ,"Shop/Unit No 2B, Gr Flr, The Obelisk, Science City Sola Road, Sola, Ahmedabad - 380060",Open until 11:00 PM,18002022022,23.08007111,72.5012401
 PH Girivar Galaxy Complex Vastral ,"Ground Floor, Girivar Galaxy Complex, Pranami Ngr, Sardar Patel Ring Rd, Vastral, Ahmedabad - 382418",Open until 11:00 PM,18002022022,23.002627,72.66685001
 Gandhi Ngr ,"UN 1 to 6 , GF, Pramukh Mastana Arcade, Kudasan Rd, Urja Ngr, Kudasan, Gandhi Ngr, Gandhinagar - 382421",Open until 11:00 PM,18002022022,23.185442,72.636087
 Chandkheda ,"No 2, Ground Floor, Atishay Prism, Tapovan Circle, Visat Koba Rd, Chandkheda, Ahmedabad - 382424",Open until 11:00 PM,18002022022,23.1190567,72.6132665
 Vande Matram ,"No G2, Savvy Swaraaj Sports Club, Vandemataram, Godrej Garden City Rd, Gota, Ahmedabad - 382481",Open until 11:00 PM,18002022022,23.104041,72.5498411
 Pizza hut Nadiad ,"Unit No 2, Shree Hari Complex, Uttar Sanda Road, Nadiad - 387001",Open until 11:00 PM,18002022022,22.674656,72.882339
 Sujitra Road ,"Shop No 25/26, GF, Maruti Solaris Mall, Sujitra Road, Anand - 388001",Open until 11:00 PM,18002022022,22.542031,72.946891
 PH Akota ,"Shop No 24, Ground Floor, Crossway Mall, Shanadevi Marg, Dandia Bazar Rd, Akota, Vadodara - 390001",Open until 11:00 PM,18002022022,22.3002301,73.194614
 Race Course Road ,"Akashganga Complex, Race Course Road, Vadodara - 390007",Open until 11:00 PM,18002022022,22.3121136,73.1657534
 Nilamber Circle ,"Shop No 7 & 8, Gr Flr, Nilamber Triumph, Vasna Gotri Road, Nilamber Circle, Vadodara - 390007",Open until 11:00 PM,18002022022,22.301578,73.1388101
 Manjalpur ,"SN TF 11, 3rd Floor, Eva Mall, Manjalpur, Vadodara - 390011",Open until 11:00 PM,18002022022,22.27346001,73.18874001
 PH Uma Charrasta ,"No 2 Ground Floor, Gajanand Society, Uma Cross Road, Waghodia Road, Vadodara - 390019",Open until 11:00 PM,18002022022,22.3009711,73.229641
 Gorwa ,"Shop No 2&3, 2nd Floor, Inorbt Mall, Alembic Road, Gorwa, Baroda - 390023",Open until 11:00 PM,18002022022,22.31171001,73.16526001
 PH SAMA SALVI VADODARA ,"Shop No 1, 2, 101 & 102 Lotus Aura 2, Sama Savli Road, Vadodara - 390024",Open until 11:00 PM,18002022022,22.355651,73.199057
 PH Bardoli ,"Callista The Mall, Baben, Bardoli - 394601",Open until 11:00 PM,18002022022,21.148945,73.089199
 PIZZA HUT Katargam ,"G 65B/66/67, Gr Flr, Laxmi Enclave 2, Katargram, Surat - 395004",Open until 11:00 PM,18002022022,21.232021,72.8360511
 Ghod Dod Road ,"OB/1, Tribhuvan Complex, Ghod Dod Road, Surat - 395007",Open until 11:00 PM,18002022022,21.175001,72.8013001
 Piplod ,"G7, International Business Center, Gaurav Path Road, Piplod, Surat - 395007",Open until 11:00 PM,18002022022,21.15772001,72.76922001
 Adajan ,"EON Square, L P Savani Road, Adajan, Surat - 395009",Open until 11:00 PM,18002022022,21.18886916,72.79024185
 PH Parvatpatia Surat ,"S No G21, G22 & B1, Gr Flr, The Palace, Godadara Road, Parvat Patia, Surat - 395010",Open until 11:00 PM,18002022022,21.183011,72.871054
 PIZZA HUT FCD ,"Shop No 06 to 08, Sai Leela Mall, Sonanagar, Abrama, Valsad - 396001",Open until 11:00 PM,18002022022,20.594419,72.9342801
 NH 8 ,"Hotel Fortune Galaxy, GIDC, NH 8, Vapi - 396195",Open until 11:00 PM,18002022022,20.3741001,72.92021001
 PH Navsari ,"Shop No 1 & 2, 74 to 76, 174 & 175, Central Bazar Mall, Luncikui Gandevi Road, Navsari - 396445",Open until 11:00 PM,18002022022,20.936701,72.940335
 New Industrial Town ,"Piyush Mahendra Metropolitian Mall, No 28 & 29, G27, New Industrial Town, Faridabad - 121001",Open until 11:00 PM,18002022022,28.3925166,77.2981623
 Mathura Rd ,"Shop No 19 & 20, Crown Interiorz Mall, Mathura Rd, Faridabad - 121003",Open until 11:00 PM,18002022022,28.46949621,77.30725452
 Sector 79 ,"SCO 48, Ground & 1st Floor, Omaxe World Street, Sector 79, Faridabad - 121006",Open until 11:00 PM,18002022022,28.387387,77.352642
 PH Crown Plaza Faridabad ,"Shop No LG2, 27/5, Crown Plaza Mall, Azad Colony, Mathura Road, Sector 15A, Faridabad - 121007",Open until 11:00 PM,18002022022,28.39787377,77.3129958
 Cyber Greens ,"No A2, Cyber Greens, Cyber City, DLF Phase 3, Gurugram - 122001",Open until 11:00 PM,18002022022,28.494201,77.093063
 DLF Phase 2 ,"No 117D, 1st Floor, Food Court, Cyber City, DLF Phase 2, Gurugram - 122001",Open until 11:00 PM,18002022022,28.495551,77.088532
 Sector 14 ,"SCO 24, Ground Floor, Old Delhi Road, Sector 14, Gurugram - 122001",Open until 11:00 PM,18002022022,28.4758133,77.0446857
 DLF Phase 1 ,"Shop No 1 & 101, DT City Centre Mall, MG Road, DLF Phase 1, Gurugram - 122001",Open until 11:00 PM,18002022022,28.47928821,77.08073594
 Sector 10 A ,"Plot No 19, SCO 3, Urban Estate, Sector 10 A, Gurugram - 122001",Open until 11:00 PM,18002022022,28.43990842,77.0066785
 Sector 38 ,"No 1/2/14977, Medanta Medicity, Ratings, Sector 38, Gurugram - 122001",Open until 11:00 PM,18002022022,28.437527,77.040716
 Sohna Road ,"LG 07 & LG 08, Raheja Mall, Sohna Road, Gurugram - 122001",Open until 11:00 PM,18002022022,28.4236098,77.039278
 PH Ocus Medley Gurugram ,"No G99, Ground Floor, Ocus Medley, Dwarka Expressway, Sector 99, Gurugram - 122001",Open until 11:00 PM,18002022022,28.46683184,76.96940624
 Sector 56 ,"SCO 33, Huda Market, Sector 56, Gurugram - 122002",Open until 11:00 PM,18002022022,28.428034,77.099754
" Ambience Island, NH 8 ","R1, 3rd Floor, Ambience Mall, Ambience Island, NH 8, Gurugram - 122002",Open until 11:00 PM,18002022022,28.50368611,77.09699166
 Sector 39 ,"Grnd Flr, Tower C, Unitech Cyber Park, Sector 39, Gurugram - 122002",Open until 11:00 PM,18002022022,28.44358643,77.05622289
 Sector 50 ,"F 58, 1st Floor, Baani Square, Sector 50, Gurugram - 122002",Open until 11:00 PM,18002022022,28.42574813,77.05740457
 Sushant Lok ,"Shop No B139 & B141, Supermart 1, DLF Phase 4, Sushant Lok, Gurugram - 122002",Open until 11:00 PM,18002022022,28.4624701,77.0875301
 Sector 67 ,"M3M Urbana, Golf Course Extention Road, Sector 67, Gurugram - 122002",Open until 11:00 PM,18002022022,28.3907883,77.0672752
 Sector 53 ,"Shop No 7, Gr Flr, Central Plaza Mall, Golf Course Road, Sector 53, Gurugram - 122003",Open until 11:00 PM,18002022022,28.442965,77.100849
 Sector 57 ,"Shop No 13/14, Hong Kong Bazaar, Sector 57, Gurugram - 122003",Open until 11:00 PM,18002022022,28.421047,77.090658
 PH M3M Broadway Gurugram ,"Ground Floor, M3M Broadway, Golf Course Ext Road, Sector 71, Gurugram - 122004",Open until 11:00 PM,18002022022,28.40134246,77.02000315
 Sector 85 ,"Shop No G145, 146 & G147, Ground Floor, IRIS Broadway, Sector 85, Gurugram - 122004",Open until 11:00 PM,18002022022,28.4038854,76.947751
 Sector 4 ,"SCF 37, Dhanwapur Road, Huda Market, Sector 4, Gurugram - 122006",Open until 11:00 PM,18002022022,28.47351392,77.00947601
" Palam Vihar, Sector 23A ","SCO 63, Ground Floor, Huda Market, Palam Vihar, Sector 23A, Gurugram - 122015",Open until 11:00 PM,18002022022,28.50401958,77.05454989
 Ansal Plaza Palam Vihar ,"SN 1 & 2, Ground Floor, Ansal Plaza Mall, Palam Vihar, Sector 23A, Gurugram - 122017",Open until 11:00 PM,18002022022,28.511484,77.041951
 PH ILD TRADE CENTER Gurugram ,"Ground Floor, ILD Trade Centre, D1 Block, Badshahpur Sohna Hwy, Malibu Town, Sec 47, Gurugram - 122018",Open until 11:00 PM,18002022022,28.42493342,77.03897493
 PH Raheja Mall UGF ,"No 6, Upper Ground Floor, Raheja Mall, Sohna Rd, D1 Block, Malibu Town, Sector 47, Gurugram - 122018",Open until 11:00 PM,18002022022,28.4234669,77.0393616
 PH HSIIDC Market Manesar ,"No D/12, HSIIDC Market, IMT, Manesar, Sector 1, Gurugram - 122051",Open until 11:00 PM,18002022022,28.36652543,76.94608741
 PH New Town Square Gurugram ,"SN SH/G/039, Gr Flr, Newtown Square, Sector 95A, Gurugram - 122505",Open until 11:00 PM,18002022022,28.42420444,76.930947
 Civil Lines ,"No 190, Delhi Road, Civil Lines, Rohtak - 124001",Open until 11:00 PM,18002022022,28.8928925,76.6011141
 Main Rohtak Rd ,"SN 5, Kh No 433/1, Triple Metroplex, Kh No 433/1, Main Rohtak Rd, Bahadurgarh - 124507",Open until 11:00 PM,18002022022,28.69655151,76.92050902
 PH OHM Sirsa ,"OHM Complex, NH9, Sirsa Fatehabad Road, Kasan Khera, Sirsa - 125055",Open until 11:00 PM,18002022022,29.52904569,75.1322605
 Sector 14 ,"Shop No 7 to 9, Ground Floor, MG Mall, Sector 14, Sonipat - 131001",Open until 11:00 PM,18002022022,29.004267,77.033599
 NH 1 ,"Neelkanth Star, NH 1, Karnal - 132001",Open until 11:00 PM,18002022022,29.64926022,76.98531265
 Sector 6 ,"Ground Floor, FunCity Mall, Grand Trunk Road, Preet Vihar, Sector 6, Panipat - 132103",Open until 11:00 PM,18002022022,29.4109344,76.9695688
 PH Rai Market Ambala Cantt ,"S No 9 & 180/1 to 3, Minerva Cinema Cplx, Rai Market Road, Ambala Cantt, Ambala - 133001",Open until 11:00 PM,18002022022,30.341879,76.838098
 Sector 5 ,"Shop No 137, MDC Complex, Sector 5, Panchkula - 134108",Open until 11:00 PM,18002022022,30.71276667,76.84937222
 PH Brijpuri Colony Yamuna Nagar ,"No 27, Professor Colony, Krishna Colony, Model Town, Yamuna Nagar - 135001",Open until 11:00 PM,18002022022,30.13747667,77.2961062
 Sector 17 ,"SCO 29, HUDA, Sector 17, Kurukshetra - 136118",Open until 11:00 PM,18002022022,29.970437,76.8377348
 PH Solan Highway ,"Amolak Towers, Saproon, Bypass Solan to Chambaghat, Lawi Khurd, Solan - 173211",Open until 11:00 PM,18002022022,30.907756,77.092716
 PH The Gulmohar Grand Una ,"Food Court, The Gulmohar Grand, Una Chandigarh Rd, 8 Miles Stone, Behdala, Una - 174306",Open until 11:00 PM,18002022022,31.43402561,76.32315834
 PH Hotel Maple Retreat Kullu Manali ,"Food Court, Hotel Maple Retreat, NH 21, Kullu, Rangri, Manali - 175131",Open until 11:00 PM,18002022022,32.22773831,77.1886355
 Kotwali Bazar ,"Maximus Mall, Kangra, Kotwali Bazar, Dharamshala - 176215",Open until 11:00 PM,18002022022,32.2140801,76.3169901
 Mcloedganj ,"1st Floor, Hotel Lhasa, Dharamkot Road, Mcloedganj, Mcloedganj - 176219",Open until 11:00 PM,18002022022,32.2387854,76.323597
 Katra B ,"2nd Floor, Wave Mall, Katra B, Jammu - 180015",Open until 11:00 PM,18002022022,32.7096011,74.8926622
 PH Jammu Road Katra ,"Jammu Road, Katra, Udhampur - 182320",Open until 11:00 PM,18002022022,32.990951,74.929172
 MA Road ,"SN 302, 3rd Flr, City Walk Shopping Mall, Mouza Kothi Bagh, MA Road, Srinagar - 190001",Open until 11:00 PM,18002022022,34.0736635,74.8187538
 PH Bemina Srinagar ,"Ground Floor, Main Bemina Road, Srinagar - 190018",Open until 11:00 PM,18002022022,34.07651313,74.77694561
 Sector 3C ,"Bokaro Mall, IG Marg, Sector 3C, Bokaro - 827003",Open until 11:00 PM,18002022022,23.6644042,86.147026
 Bistupur ,"Unit Number RT 11, P&M Hi Tech Mall, Jamshedpur City Centre, Bistupur, Jamshedpur - 831001",Open until 11:00 PM,18002022022,22.7849037,86.1776842
 PH Sakchi Jamshedpur ,"H No 300, Line No 10, New Kalimati Road, Kasidih, Jamshedpur - 831001",Open until 11:00 PM,18002022022,22.80110291,86.20870287
 Lalpur ,"Shop No 1, Food Court, Nucleus Mall, Circular Road, Lalpur, Ranchi - 834001",Open until 11:00 PM,18002022022,23.3773501,85.33162001
 PH Hazaribagh Road Ranchi ,"Shop No 12, Ground Floor, Hormah Tower, Old HB Rd, Siromtoli Chowk, Hazaribagh Rd, Ranchi - 834001",Open until 11:00 PM,18002022022,23.35434652,85.33288476
 Hinoo ,"Shop No 101, Gr Flr, Spring City Mall, Hinoo, Ranchi - 834002",Open until 11:00 PM,18002022022,23.33301667,85.317201
 PH Nucleus Parikarma Mall Ranchi ,"No C838 & 956, Nucleus Parikarma Mall, Kanke Road, Gandhi Nagar, Ranchi - 834008",Open until 11:00 PM,18002022022,23.40339609,85.31538099
 MG Road ,"No 18, Old No 42, Ramanashree Arcade, MG Road, Bengaluru - 560001",Open until 11:00 PM,18002022022,12.972354,77.618843
 Basavanagudi ,"79/1, GF, Aishwarya Sampurna, BBMP South, Vani Vilas Rd, Gandhi Bazzar, Basavanagudi, Bengaluru - 560004",Open until 11:00 PM,18002022022,12.94816243,77.5687956
 Frazer Town ,"No 66/1, Coles Road, Frazer Town, Bengaluru - 560005",Open until 11:00 PM,18002022022,12.995631,77.613814
 Coles Road ,"No 66/1, Ground Floor, Coles Rd, Cleveland Town, Pulikeshi Nagar, Bengaluru - 560005",Open until 11:00 PM,18002022022,12.99549471,77.61382398
 Rajajinagar ,"No 542/19 A, Ground Floor, 1st Block, Rajkumar Road, Rajajinagar, Bengaluru - 560010",Open until 11:00 PM,18002022022,13.00666905,77.55452301
 FCD Jayanagar ,"No 653/67, 11th Main Road, 4th Block, Jayanagar, Bengaluru - 560011",Open until 11:00 PM,18002022022,12.9279801,77.586134
 Rammurthy Nagar ,"No 19/3, Plot No 6, K R Puram, Banaswadi Dhakle, Hobli, Rammurthy Nagar, Bengaluru - 560016",Open until 11:00 PM,18002022022,13.01340269,77.6614761
 PH Ramamurthy Nagar ,"No 129, Raghavendra Circle, Ramamurthy Nagar Extn, Bengaluru - 560016",Open until 11:00 PM,18002022022,13.019111,77.672959
 Airport Road ,"No 124, Surya Chambers, Airport Road, Bengaluru - 560017",Open until 11:00 PM,18002022022,12.9591601,77.654425
 PH GT World Mall Bangalore ,"GT World Mall, Magadi Main Road, Cholourpalya, Bengaluru - 560023",Open until 11:00 PM,18002022022,12.97397276,77.55144184
 Devesandra ,"No 3, Aramanne Nagar, New BEL Road, Devesandra, Bengaluru - 560024",Open until 11:00 PM,18002022022,13.027629,77.571665
 Sahakar Nagar ,"SN 6 & 7, G Block, 60 Feet Road, Sahakar Nagar, Bengaluru - 560024",Open until 11:00 PM,18002022022,13.0634724,77.5908636
 Hebbal Kempapura ,"No 32/1/1, Kuvempu Coffee Board Layout, Hebbal Kempapura, Bengaluru - 560024",Open until 11:00 PM,18002022022,13.049963,77.5971021
 Shanthi Nagar ,"No 4/1, & 3 Shangnessy Road, Langford Town, Shanthi Nagar, Bengaluru - 560025",Open until 11:00 PM,18002022022,12.962349,77.5990801
 Old Guddadahalli ,"Legacy Mall, 1st Cross, Mysore Road, Old Guddadahalli, Bengaluru - 560026",Open until 11:00 PM,18002022022,12.9585534,77.5531936
 Koramangala ,"No 21, The Forum, Hosur Road, Koramangala, Bengaluru - 560029",Open until 11:00 PM,18002022022,12.934263,77.610866
 RT Nagar ,"No 18, HMT Layout, 80 Feet Road, WN 20, RT Nagar, Bengaluru - 560032",Open until 11:00 PM,18002022022,13.027361,77.593436
 HRBR Layout ,"No 310, AVR Base, 5th B Cross, 3rd Blk, HRBR Layout, Bengaluru - 560034",Open until 11:00 PM,18002022022,13.026119,77.636132
 Kaikondrahalli ,"Shop No 5, MGR Complex, Sarjapur Road, Kaikondrahalli, Bengaluru - 560035",Open until 11:00 PM,18002022022,12.91186743,77.68172878
 PH Kasavanahalli Hosa Road ,"Main Road, Kasavanahalli, Bengaluru - 560035",Open until 11:00 PM,18002022022,12.90104632,77.67569116
 Pizza Hut Lulu Mall ,"Lulu India Shopping Mall, Gopalapura, Binnipete, Bengaluru - 560036",Open until 11:00 PM,18002022022,12.971248,77.5106471
 FCD TC Palya ,"Sri Rama Corner Bldg, Anandpura Circle, Sannathammana Halli, TC Palya Rd, KR Puram, Bengaluru - 560036",Open until 11:00 PM,18002022022,13.0228701,77.6963501
 Vibhuthipura ,"Khatha No 14/161, Krishnarajapuram, Hobli, Vibhuthipura, Bengaluru - 560037",Open until 11:00 PM,18002022022,12.970119,77.682198
 Marathahalli ,"4th Floor, Soul Space Arena Mall, Dodda Nakkundi, Marathahalli, Bengaluru - 560037",Open until 11:00 PM,18002022022,12.979717,77.694086
 Marathahalli ,"Survey No 88, KBR Mall, Outer Ring Road, Marathahalli, Bengaluru - 560037",Open until 11:00 PM,18002022022,12.9481586,77.6987525
 Indiranagar ,"No 1/1A, CMH Road, Indiranagar, Bengaluru - 560038",Open until 11:00 PM,18002022022,12.978283,77.640576
 PH Global Malls Nayandra Hall ,"Salarpuria Sattva Divinity Shopping Mall, Pantarapalya, Nayanda Halli, Bengaluru - 560039",Open until 11:00 PM,18002022022,12.94045806,77.52476508
 Vijaynagar ,"No 16, 17th Cross, 21st Main Road, Vijaynagar, Bengaluru - 560040",Open until 11:00 PM,18002022022,12.967816,77.535904
 Pizza Hut Kalyan Nagar ,"No 12, CMR Road, 2nd Block, Kalyan Nagar, Bengaluru - 560043",Open until 11:00 PM,18002022022,13.021684,77.630015
 KR Pura ,"27 & 28, 2 Floor, Phoenix Market city, Whitefield Road, Dyavasandra, KR Pura, Bengaluru - 560048",Open until 11:00 PM,18002022022,12.995017,77.696118
 Orion Mall ,"No 50, UG 03, LGF, Orion Mall, Bangalore East, Huskur, Bidarahalli Hobli, Bengaluru - 560049",Open until 11:00 PM,18002022022,13.055825,77.763894
 T Dasarahalli ,"No 8, Rockline Mall, Jalahalli Cross, Yeshwantpura, Chokkasandra, T Dasarahalli, Bengaluru - 560053",Open until 11:00 PM,18002022022,13.040587,77.518247
 PH Muneswara Nagar Ullal ,"No 6, Ullal Main Road, Muneswara Nagar, Bengaluru - 560056",Open until 11:00 PM,18002022022,12.9512941,77.4930298
 PH Kengeri Satellite Town ,"BDA Site No 1106, Khatha No 476/1106/416, BBMP, Ward No 159, Kengeri Satellite Town, Bengaluru - 560060",Open until 11:00 PM,18002022022,12.9195602,77.483298
 PH Banashankari 5th Stage Bangalore ,"No 410, Uttarahalli, Kengari Main Road, 5th stage, Banashankari, Bengaluru - 560061",Open until 11:00 PM,18002022022,12.904498,77.527466
 PH BSK 6 ,"No 3 & 4, Survey No 7, Kanakapura Road, BSK 6 Stage, 4th B Block, Ganigarapalya, Bengaluru - 560062",Open until 11:00 PM,18002022022,12.875315,77.534738
 Pizza Hut Bagalur ,"Ground Floor, 2nd Cross, Bagalur, Kattigenahalli, Vinayak Nagar, Bengaluru - 560064",Open until 11:00 PM,18002022022,13.121725,77.614127
 Sector A ,"No 723, Yelahanka Satellite Town, Sector A, Bengaluru - 560064",Open until 11:00 PM,18002022022,13.09921064,77.58940681
 PH Bhartiya City Centre Mall Bangalore ,"UN 07F, 1st Floor, Bhartiya City Mall, Jayadev Vihar, Bengaluru - 560064",Open until 11:00 PM,18002022022,13.0832763,77.6423729
 PIZZA HUT Whitefield ,"No 640/ 557, Ground Floor, Ramangondanhalli, Varthur Hobli, Bengaluru - 560066",Open until 11:00 PM,18002022022,12.956632,77.7409006
 Malleshwaram ,"3rd Floor, Mantri Square Mall, Sampige Road, Malleshwaram, Bengaluru - 560066",Open until 11:00 PM,18002022022,12.991655,77.570445
 Whitefield ,"No 8 to 11, Ascendas Park Square Mall, Main Road, Whitefield, Bengaluru - 560066",Open until 11:00 PM,18002022022,12.987049,77.736369
 Whitefield ,"LG/02, L Bsmt, Ascendas Park Sq Mall, Main Road, Whitefield, Bengaluru - 560066",Open until 11:00 PM,18002022022,12.9870501,77.73636002
 Whitefield ,"F 22 to 24, 1st Floor, Inorbit Mall, Whitefield, Bengaluru - 560066",Open until 11:00 PM,18002022022,12.979613,77.728072
 PH Apple City Seegehalli ,"Apple City, Chaitanya Ananya, Krishnarajapura, SH 35, Seegehalli, Bengaluru - 560067",Open until 11:00 PM,18002022022,13.0086454,77.7586708
 Begur ,"New Khata No 2004/606/601/284/6/56/13, Ward No 190, Garvebhavipalya, Begur, Bengaluru - 560068",Open until 11:00 PM,18002022022,12.892194,77.637656
 Banashankari 2nd Stage ,"No 2469/2470, 24th Cross, 21st Main Road, Banashankari 2nd Stage, Bengaluru - 560070",Open until 11:00 PM,18002022022,12.9244401,77.564307
 Nagarbhavi Circle ,"No 21, Ara Viji Trade Square, Main Rd, Jnana Bharathi, Nagarbhavi Circle, Bengaluru - 560072",Open until 11:00 PM,18002022022,12.958246,77.518923
" BTM, Sec 1 ","No 931, Bhavani Sadana, 4th Stage, Vijaya Bank Colony, BTM, Sec 1, Bengaluru - 560076",Open until 11:00 PM,18002022022,12.8929401,77.6118801
 PH Dever Chikkanahalli Bangalore ,"No 11 & 12, Ground Floor, Begur Hobli, Kodickickannahalli, Bengaluru - 560076",Open until 11:00 PM,18002022022,12.89441576,77.62010175
 Marathalli ,"Plot No 38, Madivala Dollars Scheme, BTM Layout, 1st Stage, 1stPhz, Marathalli, Bengaluru - 560076",Open until 11:00 PM,18002022022,12.956501,77.70950001
 Sundaram Shetty Ngr ,"CMC Khata No 1377, Sy No 148/1 & 148/2, Bannerghatta Main Rd, Sundaram Shetty Ngr, Bengaluru - 560076",Open until 11:00 PM,18002022022,12.891065,77.598601
 BTM Layout ,"No 805, Employees Ghriha Nirmana Sangha, MICO Layout, 2nd Stage, BTM Layout, Bengaluru - 560076",Open until 11:00 PM,18002022022,12.913939,77.608924
 PH Hennur Main Road ,"No 22, Ground Floor, 1st Main Road, Byrathi Village, Hennur, Bengaluru - 560077",Open until 11:00 PM,18002022022,13.07109956,77.65194624
 Thanisandra Main Road ,"Unit GF 05, Ground Floor, Nagavara Village, Thanisandra Main Road, Bengaluru - 560077",Open until 11:00 PM,18002022022,13.045315,77.626924
 JP Nagar ,"UN 76, RBI East Layout, 7th Phase, Puttenahalli Road, JP Nagar, Bengaluru - 560078",Open until 11:00 PM,18002022022,12.8924701,77.5816201
 JP Nagar ,"Site No 2, Ground Floor, A One, 4th Phase, 100 Feet Road, JP Nagar, Bengaluru - 560078",Open until 11:00 PM,18002022022,12.906139,77.59524002
 Basveshwar Nagar ,"No 87, Bhima Jyothi LIC Colony, Chord Road, Basveshwar Nagar, Bengaluru - 560079",Open until 11:00 PM,18002022022,12.997424,77.540683
 PH Chandapura Bangalore ,"Site No 483 to 486, Iggalur, Phase 1, Chandapura Anekal Main Road, Chandapura, Bengaluru - 560081",Open until 11:00 PM,18002022022,12.78912511,77.70444237
" PH, Gottigere ","No 2, VP Katha No 301, Uttarahalli Hobli, Gottigere, Bengaluru - 560083",Open until 11:00 PM,18002022022,12.85479184,77.58849022
 Banashankari 3rd Stage ,"SN 14, Kathriguppe, Banashankari 3rd Stage, Bengaluru - 560085",Open until 11:00 PM,18002022022,12.924734,77.550856
 PH Varthur Main Road Gunjur ,"Shop No 168/2, Ground Floor, Varthur Main Road, Gunjur, Bengaluru - 560087",Open until 11:00 PM,18002022022,12.925428,77.737185
" PH Hesarghatta Main Rd, Jalahalli West ","No 751, Geleyara Balaga Layout, Hesarghatta Main Road, Jalahalli West, Bengaluru - 560090",Open until 11:00 PM,18002022022,13.069765,77.503975
" Pizza Hut, Magadi Road ","No 6/1A3, Kishan Enterprises, Srigandhada Kaval, Sunkadakatte, Bengaluru - 560091",Open until 11:00 PM,18002022022,12.989199,77.500431
 CV Raman Nagar ,"No 9, Versova Layout, Kaggadasapura Main Road, CV Raman Nagar, Bengaluru - 560093",Open until 11:00 PM,18002022022,12.98573815,77.66831741
 Koramangala ,"No 487, 80 Feet Road, 6th Block, Koramangala, Bengaluru - 560095",Open until 11:00 PM,18002022022,12.939887,77.625242
 Vidyaranyapura ,"No G 572, 5th Block, Main Road, HMT Layout, Vidyaranyapura, Bengaluru - 560097",Open until 11:00 PM,18002022022,13.078915,77.558972
 Electronic City ,"No 55, Bommasandra Village, Hosur Road, Electronic City, Bengaluru - 560099",Open until 11:00 PM,18002022022,12.82365418,77.68497963
 Electronic City ,"No V3, 3rd Cross Road, Electronic City, Bengaluru - 560100",Open until 11:00 PM,18002022022,12.84050797,77.6636812
 HSR Layout ,"17th Cross Road, HSR Layout, Sector 6, Bengaluru - 560102",Open until 11:00 PM,18002022022,12.9136264,77.6367137
 HSR Layout ,"No 3, Ground Floor, 14th Main, 17th Cross, HSR Layout, Sector 4, Bengaluru - 560102",Open until 11:00 PM,18002022022,12.9147681,77.6383679
 Varthur Hobli ,"SN 5/78/7, Bellandur Vill, Sarjapura Road, Varthur Hobli, Bengaluru - 560103",Open until 11:00 PM,18002022022,12.925749,77.675362
 Bellandur ,"No 8A, The Bay Building, RMZ Eco World, Doddakannelli Road, Bellandur, Bengaluru - 560103",Open until 11:00 PM,18002022022,12.920363,77.685255
 Kadabesanhalli ,"No 20/5, Narayan Swamy Building, Outer Ring Road, Kadabesanhalli, Bengaluru - 560103",Open until 11:00 PM,18002022022,12.93905396,77.69519549
 Bellandur ,"No 151 to 153, Gr Flr, Green Glen Layout, Varthur Hobli, Bellandur, Bengaluru - 560103",Open until 11:00 PM,18002022022,12.927309,77.670277
 Kempagowda International Airport ,"Passenger Terminal Building Arrivals, Kempagowda International Airport, Bengaluru - 560300",Open until 11:00 PM,18002022022,13.1952901,77.65273001
 PH Attebelle Giddenahalli ,"Survey No 746, Thirumagondanahali Service Rd, Giddenahali, Bengaluru - 562107",Open until 11:00 PM,18002022022,12.78145703,77.76420865
 Pizza Hut Hoskote ,"VM Icon, Om Road, NH 75, Hoskote, Bengaluru - 562114",Open until 11:00 PM,18002022022,13.074358,77.7913906
" Dommasandra, Bangalore ","183/4, No 6 to 8, K Manjunath Reddy Cplx, Sarjapura Main Road, Dommasandra, Bengaluru - 562125",Open until 11:00 PM,18002022022,12.886024,77.743574
 PH Natura Walk Sarjapur ,"24 & 25, 124, Gr & 1st Flr, Natura Walk, No 43/2, Yamare, Sarjapur, Hobli, Anekal, Bengaluru - 562125",Open until 11:00 PM,18002022022,12.87506793,77.76612205
 VV Mohalla ,"No 1/2, 6th Main, Temple Road, VV Mohalla, Mysore - 570002",Open until 11:00 PM,18002022022,12.323275,76.629898
 Indira Nagar ,"No 8 & 9, 3rd Floor, Mall of Mysore, No C1, MG Road, Nazarbad, Indira Nagar, Mysore - 570010",Open until 11:00 PM,18002022022,12.298014,76.66464002
 Kuvempu Nagar ,"No 12th, Ground Floor, Adichunhangiri Rd, K Block, 1st Stage, Kuvempu Nagar, Mysore - 570023",Open until 11:00 PM,18002022022,12.293414,76.631811
 PH Shankar Mall Tumkur ,"SN 22, SF 01, 2nd Floor, Shankar Mall, Sira Gate Road, TUDA Layout, Shanti Nagar, Tumkur - 572106",Open until 11:00 PM,18002022022,13.3581797,77.1031394
 PH BM Road Shankaripuram ,"No 91, BM Road, Shankaripuram, Hassan - 573201",Open until 11:00 PM,18002022022,13.00335954,76.11285204
 KS Rao Road ,"4th Floor, City Center Mall, KS Rao Road, Mangaluru - 575001",Open until 11:00 PM,18002022022,12.871122,74.842471
 Attavara Vill Cantt Ward ,"No 06, Forum Mall, Food court, Pandeshwar Road, Attavara Vill Cantt Ward, Mangaluru - 575001",Open until 11:00 PM,18002022022,12.857629,74.838299
 Kadri Mangalore ,"D No 15/13/707/4/1, Time Square Complex, Shiv Bagh, Kadri, Mangalore - 575002",Open until 11:00 PM,18002022022,12.883801,74.853201
 Bejai ,"Bharath Mall, Bejai, Mangaluru - 575004",Open until 11:00 PM,18002022022,12.885966,74.84090019
 Thokottu ,"1 to 3, 11 to 13, GF, Transit One Mall, Ullal Guthu, Thokottu, Dakshina Kannada - 575020",Open until 11:00 PM,18002022022,12.8226877,74.8593868
 PH Time Square Mall Udupi ,"GF, Mandavi Times Square Mall, Thenkpete, Udupi Manipal Hwy, Kunjibettu, Udupi - 576102",Open until 11:00 PM,18002022022,13.3462199,74.75222476
 Manipal ,"No 1 & 2, Premier Park, End Point Road, Manipal, Udupi - 576104",Open until 11:00 PM,18002022022,13.3481367,74.7838042
 Eshwar Nagar ,"FF12, 1st Floor, Canara Mall, Manipal Main Road, Eshwar Nagar, Udupi - 576104",Open until 11:00 PM,18002022022,13.353023,74.790098
 Pizza Hut Davangere ,"No 3436/1 to 3, Gr Flr, Darshan Arcade, MCC B Block, Dental College Road, Davanagere - 577004",Open until 11:00 PM,18002022022,14.4510601,75.915976
 PH Shimoga ,"Site 129/129/228, Sri Shylaja Jyoti Cplx, Ward No 5, Balraj URS Rd, Tilak Nagar, Shimoga - 577201",Open until 11:00 PM,18002022022,13.934619,75.573885
 Pizza Hut Dharwad ,"No CS/050420, 1st Main Road, Shivanand Nagar, Dharwad - 580001",Open until 11:00 PM,18002022022,15.4490501,75.011279
 PH Steller Mall Hubli ,"Shop No 11, RS No 12B/1B/2A, Gr Flr, Ward 3, Khatha No 34B/361, Vidyanagar, Hubli - 580021",Open until 11:00 PM,18002022022,15.359217,75.1274501
 Hubli ,"Unit G8, Ground Floor, Gokul, Airport Road, Dharward - 580030",Open until 11:00 PM,18002022022,15.350225,75.111004
 Devi Ngr ,"No 12/12A/85, CTS WN 16 & 18, Blk No 03, Parvathi Ngr Main Rd, KBH Colony, Devi Ngr, Bellary - 583101",Open until 11:00 PM,18002022022,15.151749,76.923136
 PH Hosapete ,"Survey No 17, Khan Building, 2nd Cross, Basaveshwara Rd, College Rd, Hosapete, Hosapete - 583201",Open until 11:00 PM,18002022022,15.27464147,76.38145359
 PH New Jevargi Road Gulbarga ,"No 4, AY Patil Pride, New Jevargi Road, Bhagyavanti Nagar, Gulbarga - 585102",Open until 11:00 PM,18002022022,17.309601,76.815343
 Market Road ,"City Center Mall, Market Road, Gulbarga - 585102",Open until 11:00 PM,18002022022,17.3363108,76.8363066
 Pizza Hut Kalaburagi ,"2/910/71/2, GF, Lahoti Business Centre, Sy No 71/2, Sedam Road, Ring Road, Badepur, Gulbarga - 585105",Open until 11:00 PM,18002022022,17.325489,76.853346
 Bijapur ,"MS Complex, Banjara Cross, Solapur Road, Bijapur - 586103",Open until 11:00 PM,18002022022,16.853067,75.712623
 PH JNMC Campus Belgaum ,"Unit No 1, Gr Flr, Convention Center, JNMC Campus, Nehru Nagar, Belgaum - 590001",Open until 11:00 PM,18002022022,15.8845183,74.5189903
 Pizza Hut Belgaum ,"No 198/16/17, RPD College Road, Tilakwadi, Belgaum - 590006",Open until 11:00 PM,18002022022,15.83449943,74.50496891
 PH Viraj Junction Koganoli ,"No 3777/1 to 4, Ground Floor, Food Court, Viraj Junction, Koganoli, Belgaum - 591229",Open until 11:00 PM,18002022022,16.53694886,74.31964937
 PH Secura Mall Kannur ,"G01, UGF, Secura Mall Secura Center, Chovva Mambaram Road, Elayavoor, Kannur - 670018",Open until 11:00 PM,18002022022,11.864467,75.409078
" Pizza Hut, Payyanur ","Magnum Mall, Main Road, Payyannur, Payyanur - 670307",Open until 11:00 PM,18002022022,12.1065847,75.2120262
 Pizza Hut Calicut ,"Ground Floor, Noble Building, Indira Gandhi Road, Kozhikode - 673004",Open until 11:00 PM,18002022022,11.259346,75.790086
 Kozhikode Bypass ,"T1, G1003, 3rd Floor, NH 17, Hilite City, GA College, Food Court, Kozhikode Bypass, Kozhikode - 673014",Open until 11:00 PM,18002022022,11.2483051,75.8332437
 PH Fathima Tower Ramanattukara ,"Fathima Tower, Feroke, KozhikodeNilmburGudallur Rd, Ramanattukara, Calicut - 673631",Open until 11:00 PM,18002022022,11.18249016,75.84712142
 PH Hala Mall Puthanathani ,"Hala Mall, NH 66, Puthanathani, Puthanathani - 676552",Open until 11:00 PM,18002022022,10.93432582,76.0041049
 Stadium Road ,"23/513/16, Sy No 3155/2, 1st Flr, Kajas, Ward No 5, Block No 53, Stadium Road, Palakkad - 678001",Open until 11:00 PM,18002022022,10.769393,76.661602
" Pizza Hut, West Fort ","Puthenpurackal Towers, Civil Lane Road, West Fort, Thrissur - 680011",Open until 11:00 PM,18002022022,10.521931,76.200768
 Pizza Hut Aswini Junction ,"TBPL, Akshay Arcade, Aswini Hospital Junction, Tuda Road, Thrissur - 680020",Open until 11:00 PM,18002022022,10.535635,76.214913
 Puzhakkal ,"2nd Floor, Sobha City Mall, Trissur Guruvayur Road, Puzhakkal, Thrissur - 680553",Open until 11:00 PM,18002022022,10.5498891,76.1825836
 Fort ,"Unit No 1, Survey No 18, Ground Floor, Fort, Ernakulam - 682001",Open until 11:00 PM,18002022022,9.96770101,76.2441218
 Ravipuram ,"Shop No 39/4153 & 39, Vally Aracde, Survey No 1335/5, MG Road, Ravipuram, Ernakulam - 682016",Open until 11:00 PM,18002022022,9.9606397,76.2885864
 Aluva ,"UN 1, Gr Flr, Radhani Developers, Asarikadan Road, Akkat, Aluva, Ernakulam - 682016",Open until 11:00 PM,18002022022,10.100416,76.347618
 PH Vytilla Kochi ,"Power House Junction, NH 66, Bypass Vyttilla, Ernakulam - 682019",Open until 11:00 PM,18002022022,9.9636477,76.3185671
 Edapally ,"No 34/1089, 34/1090, 3rd Flr, Lulu Mall, Edapally, Ernakulam - 682024",Open until 11:00 PM,18002022022,10.027175,76.308345
" Pizza Hut, Palarivattam ","Ground Floor, Pipeline Jn, Civil Line Road, Ernakulam - 682025",Open until 11:00 PM,18002022022,10.004428,76.311861
" Pizza Hut, Kakanad ","Grand Mall, Edachira Road, Ernakulam - 682030",Open until 11:00 PM,18002022022,10.014928,76.364851
 PH Kalamserry Kochi ,"No 32/637T, Cusat Junction, NH 47, South Kalamassery, Ernakulam - 682033",Open until 11:00 PM,18002022022,10.04836312,76.31856638
 MG Road ,"SN 408, 4th Floor, Centre Square Mall, MG Road, Cochin - 682035",Open until 11:00 PM,18002022022,9.97807301,76.282972
 PH Seaport Airport Road Kakkanad ,"No 17/2249 & 17/2250, Seaport Airport Road, CEZZ PO, Kakkanad, Ernakulam - 682037",Open until 11:00 PM,18002022022,10.002271,76.349063
 PH Thrippunithura Ernakulam ,"Ground Floor, Vadakkekotta, SH15, Thrippunithura, Ernakulam - 682306",Open until 11:00 PM,18002022022,9.95186501,76.337198
 PH AM Road Perumbavoor ,"Mullapilly Building, AM Road, Perumbavoor, Perumbavoor - 683542",Open until 11:00 PM,18002022022,10.11453908,76.47645946
" Pizza Hut, Thodupuzha ","Building No 5/163 /A2, GF, Pulimootti, Thodupuzha, Idukki - 685608",Open until 11:00 PM,18002022022,9.90740801,76.710002
 PH Kottayam ,"Ground Floor, The Business Centre, Sasthri Road, Kottayam - 686001",Open until 11:00 PM,18002022022,9.5921077,76.5245295
 PH Valiakulam Changanaserry ,"Ground Floor, Ahalya Arcade, Karukachal Changanassery Rd, Valiakulam, Kottayam - 686104",Open until 11:00 PM,18002022022,9.461408578,76.55880954
 PH Kottaramattom Pala ,"MKP Square, Pala, Thulavila, Kottaramattom, Pala - 686575",Open until 11:00 PM,18002022022,9.708048959,76.67190871
 PH MC Road Ettumanoor ,"Shop No 1 & 2, Athan Arcade, MC Rd, Ettumanoor, Thellakom, Kottayam - 686630",Open until 11:00 PM,18002022022,9.65048155,76.55004687
 PH MC Road Muvattupuzha ,"Mullappilly Building, SH 1, MC Road, PO Jn, Thottumkalpeedika, Ernakulam - 686661",Open until 11:00 PM,18002022022,9.981522183,76.58002961
 PH Thiruvalla Kerala ,"Sy No 203/8/4, Gr Flr, Pothericans Bldg, Thiruvalla, Thiruvalla - 689101",Open until 11:00 PM,18002022022,9.386198957,76.57507054
" PizzaHut, Kollam ","Hotel VAIDYA Residency, Residency Road, Chinnakada, Kollam - 691001",Open until 11:00 PM,18002022022,8.888991,76.590656
 PH Pathanapuram Rd Adoor ,"Ground Floor, J & J Building, Kayamkulam Pathanapuram Rd, Pathanamthitta - 691523",Open until 11:00 PM,18002022022,9.152342983,76.73864312
 Pizza Hut MG Road ,"No TC 25/205/1 & 25/206/1, SHA Towers, MG Road, Pulimoodu Junction, Thiruvananthapuram - 695001",Open until 11:00 PM,18002022022,8.49440301,76.948061
 Pattom ,"TC 2/361 /1, Oban Square, Pattom, Thiruvananthapuram - 695004",Open until 11:00 PM,18002022022,8.52873401,76.933775
 Sasthamangalam ,"TC No 9/885,4 & 5, Nikunjam Harmony, Sasthamangalam, Thiruvananthapuram - 695010",Open until 11:00 PM,18002022022,8.51177101,76.9669901
 PH Sasthamangalam ,"Ground Floor, Jawahar Nagar, Sasthamangalam, Thiruvananthapuram - 695010",Open until 11:00 PM,18002022022,8.511794999,76.96793001
 PH Karamana Pappanamcode ,"CTO Colony, Pappanamcode, Thiruvananthapuram - 695018",Open until 11:00 PM,18002022022,8.469688187,76.98144029
 Chakkai ,"SF 25, 2nd Floor, Mall Of Travancore, Chakai Enchakkal Bypass Road, Chakkai, Thiruvananthapuram - 695024",Open until 11:00 PM,18002022022,8.48700101,76.9255901
 Pizza Hut Lulu Mall ,"Unit No 121, Lulu Mall, Akkulam, Anayara, Thiruvananthapuram - 695029",Open until 11:00 PM,18002022022,8.51479601,76.898065
 PH Kazhakkoottam Thiruvananthapuram ,"Anjali Arcade, Attinkuzhy, Arappuravilakam, Kazhakuttom, Thiruvananthapuram - 695582",Open until 11:00 PM,18002022022,8.550596166,76.87727785
 Saket Square ,"Upper Ground Floor 7 & 8, Rafael Tower, Saket Square, Indore - 452001",Open until 11:00 PM,18002022022,22.725083,75.893986
 Bhawarkua Main Rd ,"No UG 01, 1st Flr, Orange Business Park, No 1618/1/2 & 1618/1/3, Bhawarkua Main Rd, Indore - 452001",Open until 11:00 PM,18002022022,22.694714,75.866313
 PH Treasure Island Mall Indore ,"No F13, 13A & 11, Treasure Island Mall, Mahatma Gandhi Road, South Tukoganj, Indore - 452001",Open until 11:00 PM,18002022022,22.72170307,75.8786766
 PH Airport Road Indore ,"Plot No 623, Mahavir Kripa Avenue, Main Airport Road, Kalani Nagar, Indore - 452006",Open until 11:00 PM,18002022022,22.72447095,75.82541757
" PH Annapurna, Indore ","No 992, Ground Floor, Surya Bhawan, Ranjit Hanuman Road, Sudama Nagar, Indore - 452009",Open until 11:00 PM,18002022022,22.694501,75.829201
 Vijay Nagar ,"Anchor No 1, 2nd Floor, Malhar Mega Mall, AB Road, Vijay Nagar, Indore - 452010",Open until 11:00 PM,18002022022,22.7450583,75.8942559
" PH 78, Scheme ","Plot No 3, Ground Floor, Part 2, 78 Scheme, Vijay Nagar, Indore - 452010",Open until 11:00 PM,18002022022,22.76128575,75.88697523
 Nanakheda ,"G 26A, 27, 28, Gr Flr, Cosmos Mall, D/9 Dhanvantri Chikitsa Yojna, Nanakheda, Ujjain - 456010",Open until 11:00 PM,18002022022,23.1566738,75.7941735
 Pizza Hut DB CITY ,"T 14 & T 15, 3rd Floor, DB City Mall, Arera Hills, MP Nagar, Bhopal - 462011",Open until 11:00 PM,18002022022,23.2326101,77.4299301
 Indrapuri ,"Unit No 2B/1, Indrapuri, Bhopal - 462021",Open until 11:00 PM,18002022022,23.2507971,77.4630704
 Sector C ,"Plot No 6, Hoshangabad Road, Vidyanagar, Sector C, Bhopal - 462026",Open until 11:00 PM,18002022022,23.1927995,77.4489513
 Kolar Road ,"No 03, Mandakini Housing Society, Kolar Road, Bhopal - 462042",Open until 11:00 PM,18002022022,23.183624,77.417602
 Phool Bagh Lashkar ,"Gurudwara Gate, MLB Road, Phool Bagh Lashkar, Gwalior - 474001",Open until 11:00 PM,18002022022,26.2087029,78.1657604
 Race Course Road ,"Stall No 12 & 13, 3rd Floor, DB Mall, H No 12, WN 22, Zone 10, Race Course Road, Gwalior - 474002",Open until 11:00 PM,18002022022,26.2163303,78.185078
 Napier Town ,"No 361 & 361A, Russel Chowk, Anand Talkies Road, Napier Town, Jabalpur - 482001",Open until 11:00 PM,18002022022,23.1615251,79.9369363
 PH-Jabalpur ,"Plot No 635, Scheme No 5, Vijay Nagar, Laxmipur, Jabalpur - 482002",Open until 11:00 PM,18002022022,23.188351,79.9119401
 Murzban Road ,"17,SN 3/4/5, 15 to 18, Elphinstone House, CST Fort, Murzban Road, Mumbai - 400001",Open until 11:00 PM,18002022022,18.938369,72.833597
 PH Girgaon Chowpatty Mumbai ,"No 121 & 119, Mantri Building, Church Jn, Jagannath Shankar Seth Road, Girgaon, Mumbai - 400004",Open until 11:00 PM,18002022022,18.9562817,72.81452691
 PH Azad Nagar Colaba ,"Ground Floor, Kismet Building, Shahid Bhagat Singh Rd, Azad Nagar, Colaba, Mumbai - 400005",Open until 11:00 PM,18002022022,18.91465967,72.82433579
 PH Mumbai Lower Parel ,"2nd Floor, Palledium Mall, East Zone, Senapati Bapat Marg, Lower Parel, Mumbai - 400013",Open until 11:00 PM,18002022022,18.994915,72.82522677
 PH Kohinoor Square Dadar ,"1st Floor, Kohinoor Square, Shivaji Park, NC Kelkar Rd, RG Gadkari Chowk, Dadar West, Mumbai - 400028",Open until 11:00 PM,18002022022,19.024701,72.841243
 Bandra East ,"Gr Flr, Bandra Kurla Complex, BPCL Petrol bunk, Bandra East, Mumbai - 400051",Open until 11:00 PM,18002022022,19.069725,72.868317
 Mumbai ,"CST F/193, SV Road, TPS 3, Khar West, Mumbai - 400052",Open until 11:00 PM,18002022022,19.067291,72.837121
 Andheri West ,"Unit No 261, 2nd Floor, Infiniti Mall, New Link Road, Oshiwara, Andheri West, Mumbai - 400053",Open until 11:00 PM,18002022022,19.141179,72.830875
 Andheri West ,"Shop No 2A, 2nd Floor, Fun Republic Mall, Shah Ind Est, Veera Desai Rd, Andheri West, Mumbai - 400053",Open until 11:00 PM,18002022022,19.1348201,72.8327801
 PH Vile Parle West Mumbai ,"Suresh Colony, LIC Colony, Swami Vivekananda Rd, Vile Parle West, Mumbai - 400056",Open until 11:00 PM,18002022022,19.10056294,72.83954701
" T2, Mumbai Airport ","W5 3028, Level 3, Domestic Food Court, T2, Mumbai Airport, Mumbai - 400059",Open until 11:00 PM,18002022022,19.089536,72.863435
 PH Jeet Nagar Versova ,"Shop No 5 & 6, Mount See View, JP Rd, Jeet Nagar, Andheri West, Mumbai - 400061",Open until 11:00 PM,18002022022,19.13454336,72.81089757
 Malad West ,"Restaurant No 22, 2nd Flr, Inorbit Mall, Chincholi Bunder, New Link Rd, Malad West, Mumbai - 400062",Open until 11:00 PM,18002022022,19.1732755,72.8358344
 Goregaon East ,"UN 15,16,12 & 17,Gr Flr, The Hub Mall, Western Express Highway, Goregaon East, Mumbai - 400063",Open until 11:00 PM,18002022022,19.154881,72.856256
 PH Gokuldham Colony Goregaon ,"19/68, Krishna Mart, Krishna Vatika Marg, ONGC Colony, Gokuldham Colony, Goregaon, Mumbai - 400063",Open until 11:00 PM,18002022022,19.17519371,72.86788975
 Malad West ,"Shop No 9, Raj Infinia, Evershine Nagar, Malad West, Mumbai - 400064",Open until 11:00 PM,18002022022,19.1889542,72.8340637
 Malad West ,"Unit No 307, 3rd Floor, Infiniti Mall, Malad West, Mumbai - 400064",Open until 11:00 PM,18002022022,19.1849893,72.8342423
 Kandivali West ,"SN G3 & F2, Profit Centre, 120 Feet Rd, Borsapada, Mahaveer Nagar, Kandivali West, Mumbai - 400067",Open until 11:00 PM,18002022022,19.213901,72.8407201
 PH Sion West Mumbai ,"No 13/A1, New Sindhi Colony, Sion West, Mumbai - 400068",Open until 11:00 PM,18002022022,19.04139062,72.86078095
 PH Dahisar West Mumbai ,"Shop No 1 & 2, Sortee Somnath CHSL, New Link Rd, Kandarpada, Dahisar West, Mumbai - 400068",Open until 11:00 PM,18002022022,19.25806239,72.8536226
 Kurla West ,"F27/80, 1st Floor, Phoenix Market City, LBS Marg, Kurla West, Mumbai - 400070",Open until 11:00 PM,18002022022,19.086333,72.889881
" PH-Kstar Mall, Chembur ","Unit No 5 & 6, 3rd Floor, K Star Mall, Diamond Garden, Basant Garden, Chembur, Mumbai - 400071",Open until 11:00 PM,18002022022,19.0518684,72.9003546
 Powai ,"Unit No G3, Delphi Powai, Hiranandani Business Park, Powai, Mumbai - 400076",Open until 11:00 PM,18002022022,19.1202647,72.9088161
 Mulund West ,"3rd Floor, R Mall, LBS Marg, Kamgar Colony, Mulund West, Mumbai - 400080",Open until 11:00 PM,18002022022,19.183977,72.951601
 Ghatkopar West ,"Shop No T 28/29, 3rd Floor, R City Mall, LBS Marg, Ghatkopar West, Mumbai - 400086",Open until 11:00 PM,18002022022,19.0998124,72.9166852
 Ghatkopar West ,"F0003, 3rd Flr, Food Court, R City Mall, North Wing, LBS Road, Ghatkopar West, Mumbai - 400086",Open until 11:00 PM,18002022022,19.099701,72.916501
 Andheri East ,"Shop No 1, Ground Floor, Tandon Mall, Andheri Kurla Rd, Andheri East, Mumbai - 400093",Open until 11:00 PM,18002022022,19.1123555,72.8646645
 Vile Parle East ,"Chhatrapati Shivaji Domestic Airport, Western Suburbs, Vile Parle East, Mumbai - 400099",Open until 11:00 PM,18002022022,19.094012,72.85518002
 Kandivali East ,"3rd Flr, No 39, Growel Mall, Akurli Road, Kandivali East, Mumbai - 400101",Open until 11:00 PM,18002022022,19.202768,72.860156
 Kandivali East ,"SN 17, Thakur Cinema & Welfare Centre, Thakur Village, Kandivali East, Mumbai - 400101",Open until 11:00 PM,18002022022,19.2092399,72.872243
 PH SV Road Jogeshwari West ,"Shop No 1, Royal Garden Building, SV Rd, Saraswati Baug, Kevnipada, Jogeshwari West, Mumbai - 400102",Open until 11:00 PM,18002022022,19.13059442,72.84772826
 Vicino Mall Andheri West ,"SN 8 & 106, Ground Floor, Vicino Mall, Oshiwara, Andheri West, Mumbai - 400102",Open until 11:00 PM,18002022022,19.151405,72.834511
 Samata Nagar ,"2nd Floor, Korum Mall, Samata Nagar, Thane - 400601",Open until 11:00 PM,18002022022,19.202992,72.964977
 Thane West ,"Shop No 7 & 14, Cinewonder Mall, Kapurbavdi, Ghodbunder Road, Thane West, Thane - 400607",Open until 11:00 PM,18002022022,19.221326,72.977276
 Viviana Mall ,"2nd Floor, Food Court, Viviana Mall, Eastern Express Highway, Majiwada, Thane - 400607",Open until 11:00 PM,18002022022,19.2086348,72.9714252
 Patlipada ,"Shop No 101/102, The Walk, Hiranandani Estate Road, Patlipada, Thane - 400607",Open until 11:00 PM,18002022022,19.255795,72.983967
 Belapur Thane ,"Shop No 7 to 10, Royal Castle Building, Plot No M1, Belapur Thane, Navi Mumbai - 400614",Open until 11:00 PM,18002022022,19.012501,73.0365401
 Pizza Hut Florence Kasarvadavli ,"No 2 to 5, Florence Satguru Life Spaces, Kasarvadavali, Ghodbunder Road, Thane - 400615",Open until 11:00 PM,18002022022,19.2710701,72.9670201
 PH Ghansoli Navi Mumbai ,"Shop No 17 & 18, Sunberry, Plot No 26, Sector 8, Thane - 400701",Open until 11:00 PM,18002022022,19.117603,72.996395
" Vashi, Sector 28 ","PN 1A & 1B, Grnd Flr, Hotel Blue Diamond, Vashi, Sector 28, Navi Mumbai - 400705",Open until 11:00 PM,18002022022,19.09070556,73.00555556
 Vashi ,"2nd Floor, Inorbit Mall, Vashi, Sector 30A, Navi Mumbai - 400705",Open until 11:00 PM,18002022022,19.065429,73.001349
" Nerul, Sector 1 ","5, Ground Floor, Ahilya Gokul Patil Road, Nerul, Sector 1, Navi Mumbai - 400706",Open until 11:00 PM,18002022022,19.045975,73.024145
 PH Seawoods Mall Navi Mumbai ,"1, PN R, 2nd Flr, Seawoods Grand Central, Seawoods Station Rd, Nerul East, Sector 40, Navi Mumbai - 400706",Open until 11:00 PM,18002022022,19.02189409,73.01856386
 PH Bhayandar ,"Shop No 2 to 5, Roop Razat Plaza CHS, Bhayandar West, Thane - 401101",Open until 11:00 PM,18002022022,19.294565,72.847328
 Mira Bhayander Rd ,"No 14, 16 E Wing, Latif Park, Mira Bhayander Rd, Thane - 401107",Open until 11:00 PM,18002022022,19.2859743,72.86893621
 PH Delta Garden Mira Road ,"SN 9 & 10, Delta Green, C Wing, Mira gao, Siddhi Vinayak Nagar, Mira Bhayandar, Thane - 401107",Open until 11:00 PM,18002022022,19.268134,72.875728
 PH Koliwada Vasai West ,"Shop No 14 & 15, Emerald Building, Malonde, GG College Road, Vasai West, Vasai - 401201",Open until 11:00 PM,18002022022,19.34340637,72.80701122
 Palghar ,"Plot No 27, Vartak Arcade, Dewanman, Ambadi Road, Palghar, Thane - 401202",Open until 11:00 PM,18002022022,19.3876839,72.826369
 Mumbai ,"No TF17, 3rd Floor, The Capital Mall, VVMC, Nalasopara East, Virar - 401203",Open until 11:00 PM,18002022022,19.407421,72.822021
 Virar West ,"Ground Floor, DK Plaza, Vasai, Palghar, Virar West, Virar - 401303",Open until 11:00 PM,18002022022,19.465962,72.805946
 PH Virar East Virar ,"Vidya Sadan Society, Nana Nani Park, Manvelpada Road, Virar, Virar - 401305",Open until 11:00 PM,18002022022,19.4480909,72.818055
 Boisar ,"Shop No 9 to 11, Gr Flr, Prestige Apt, Yashwant Srushti, Palghar Road, Boisar, Palghar - 401501",Open until 11:00 PM,18002022022,19.7934701,72.7588501
 New Panvel East ,"Shop No 1 to 5, Priya Apt, Sector 4, New Panvel East, Panvel - 410206",Open until 11:00 PM,18002022022,19.00310097,73.11710861
 PH Kamothe Navi Mumbai ,"Shop No 9 & 10, Tharwani Residency, Kamothe, Sion Panvel Expy, Panvel, Sec 6A, Panvel - 410206",Open until 11:00 PM,18002022022,19.025994,73.094494
 PH ORION MALL ,"No K05, 2nd Flr, Food Court, Orion Mall, Panvel, Panvel - 410206",Open until 11:00 PM,18002022022,18.992801,73.11613167
 KHARGHAR ,"S No 9 & 10, Ground Floor, Sai Miracle, Plot No 16/17/19, Kharghar, Sector 35E, Navi Mumbai - 410210",Open until 11:00 PM,18002022022,19.071051,73.078261
" Kharghar, Sector 7 ","Shop No 20 to 22, Shanti CHS, Kharghar, Sector 7, Navi Mumbai - 410210",Open until 11:00 PM,18002022022,19.035413,73.063415
 Moledina Rd ,"No 231, SGS Mall Camp, Moledina Rd, Pune - 411001",Open until 11:00 PM,18002022022,18.5193101,73.877466
 Sapphire Foods India Ltd ,"No 1, Plot No 47A & 1077, HBC Building, Shukrawar Peth, Hirabaug, Pune - 411002",Open until 11:00 PM,18002022022,18.503991,73.856081
 Sapphire Foods India Ltd ,"No 1, Plot No 47A & 1077, HBC Building, Shukrawar Peth, Hirabaug, Pune - 411002",Open until 11:00 PM,18002022022,18.503991,73.856081
 FC Collage Road ,"Shop No 1A to E, Millennium Plaza, Survey No 1216, FC Collage Road, Pune - 411004",Open until 11:00 PM,18002022022,18.521798,73.8411201
 PH Aero Mall Pune Airport ,"Shop No K14, 2nd Floor, Survey No 235, Mhada Colony, Viman Nagar, Pune - 411006",Open until 11:00 PM,18002022022,18.57809397,73.90723648
 Aundh ,"FC 02, 03 & 3A, 2nd Flr, Westend Mall, Aundh, Pune - 411007",Open until 11:00 PM,18002022022,18.561809,73.806906
 PH Dapodi Pune ,"Shop No 5, Ground Floor, Siddhi Tower, Ganesh Nagar, Dapodi, Pimpri Chinchwad, Pune - 411012",Open until 11:00 PM,18002022022,18.58249873,73.83106897
 Hadapsar ,"Unit No T1, Seasons Mall, Magarpatta City, Hadapsar, Pune - 411013",Open until 11:00 PM,18002022022,18.5196396,73.9304885
 93 AVENUE ,"Unit No 2 & 3, Ground Floor, Kalubai Chowk, Wanowrie, Fatima Nagar, Pune - 411013",Open until 11:00 PM,18002022022,18.505676,73.906494
 Viman Nagar ,"G5, LG Flr, Phoenix Marketcity Mall, Survey Number 201, Viman Nagar, Pune - 411014",Open until 11:00 PM,18002022022,18.5617401,73.9175701
 Viman Nagar ,"S26, 2nd Flr, Phoenix Market City Mall, Nagar Road, Viman Nagar, Pune - 411014",Open until 11:00 PM,18002022022,18.561438,73.917462
 Kharadi ,"WTC F & B No 4, Tower 2, City Hub, Dholepatil Farms Road, Kharadi, Pune - 411014",Open until 11:00 PM,18002022022,18.5533608,73.9483754
 PH-Dighi ,"Shop No 85/1/1, GF, Kamalraj Nishigandh, Pune Alandi Road, Dighi, Pune - 411015",Open until 11:00 PM,18002022022,18.6196401,73.8738101
 PIZZA HUT Dhanori ,"Ground Floor, Marrakesh, Dhanori Road, Madhav Nagar, Dhanori, Pune - 411015",Open until 11:00 PM,18002022022,18.5974201,73.90233001
 Dhanori Road ,"Shop No 31/B , Gr Flr, Shoppers Orbit, Dhanori Road, Pune - 411015",Open until 11:00 PM,18002022022,18.7502733,73.878591
 Kalyani Nagar ,"Shop No 12, Hermes Waves Mall, Kalyani Nagar, Pune - 411016",Open until 11:00 PM,18002022022,18.546485,73.900857
 Shivaji Nagar ,"UN 3, PN 403 A1, The Pavillion Mall, Senapati Bapat Nagar, Shivaji Nagar, Pune - 411016",Open until 11:00 PM,18002022022,18.5335274,73.8276007
 Kothrud ,"Shop No 16 to 19, Karishma Complex, Sangam Press Road, Kothrud, Pune - 411017",Open until 11:00 PM,18002022022,18.503006,73.821997
 Pimpri ,"Shop No 3, Jewel of Pimpri, Kamla Cross Road, Pimpri, Pune - 411018",Open until 11:00 PM,18002022022,18.5935601,73.798826
 PH- Bavdhan ,"Plot No 2, Gr & 1st Flr, Sagar Society, Sr No 12/2, Bavdhan Khurd, Pune - 411021",Open until 11:00 PM,18002022022,18.514941,73.782201
 Pimple saudagar ,"Shop No 2, Part 3, Rajveer Place, Pimple saudagar, Pune - 411027",Open until 11:00 PM,18002022022,18.5933133,73.7986074
 PH Sasane Nagar Pune ,"Fortune Plaza, Vardhaman Township, Sasane Nagar, Hadapsar, Pune - 411028",Open until 11:00 PM,18002022022,18.48853286,73.93332893
 Hadapsar ,"No 01, 140/11 & 13, Green Harvest Bldg, Magarpatta, Hadapsar, Pune - 411028",Open until 11:00 PM,18002022022,18.515833,73.934918
 PH FCDi Elpro Mall ,"No 301, 3rd Floor, Elpro Mall, Chinchwad Gaon, Chinchwad, Pune - 411033",Open until 11:00 PM,18002022022,18.628401,73.784101
 PH- Kumar Pacific ,"No 2 & 3, 3rd Floor, Vrindavan Society, Shankar Seth Rod, Gurunanak Nagar, Pune - 411037",Open until 11:00 PM,18002022022,18.501341,73.8722101
 Dhayari ,"Shop No 88, Amrut Ganga Apartment, DSK Vishwa, Khau Galli, Dhayari, Pune - 411041",Open until 11:00 PM,18002022022,18.4570203,73.8022734
" Nigdi, Sector 24 ","No 15 to 17, Kohinoor Arcade, Tilak Chowk, Pradhikaran, Nigdi, Sector 24, Pune - 411044",Open until 11:00 PM,18002022022,18.65880248,73.77672315
 Baner ,"Sy No 115, Hissa No 3/1, Ground Floor, Haveli, TIARA, Baner, Pune - 411045",Open until 11:00 PM,18002022022,18.564599,73.7745401
 Baner pashan ,"Nano Space IT Park, Baner Pashan Link Road, Baner, Pune - 411045",Open until 11:00 PM,18002022022,18.55198247,73.79501071
 Katraj ,"Green Park, Pune Satara Road, Katraj, Pune - 411046",Open until 11:00 PM,18002022022,18.457553,73.8585851
 Ph-Karve Nagar ,"Showroom No 04, Krushnai Plaza, CTS No 291, Hingne, Karve Nagar, Pune - 411054",Open until 11:00 PM,18002022022,18.488021,73.813691
 PH VJ Happiness Street Hinjewadi ,"Shop No 4 & 5, Ground Floor, Phase 2, VJ Happiness Street, Hinjewadi, Pune - 411057",Open until 11:00 PM,18002022022,18.58715528,73.70019284
 Hinjewadi ,"3rd Flr, Global Hi Street Mall, Phase 1, Rajiv Gandhi Infotech Park, Hinjewadi, Pune - 411057",Open until 11:00 PM,18002022022,18.594392,73.725458
 Wakad ,"SN 1 to 4, Ozone Spring, Survey No 240/1, Wakad, Pune - 411057",Open until 11:00 PM,18002022022,18.594893,73.7636285
 Warje ,"Shop No 3, Laxmi Plaza, Phase 1, Atul Nagar, Mumbai Banglore Highway, Warje, Pune - 411058",Open until 11:00 PM,18002022022,18.487001,73.795001
 PH Rainbow Cross Road Wagholi ,"Ground Floor, Rainbow Cross Rd Building, Bakori Phata, Nagar Road, Wagholi, Pune - 412207",Open until 11:00 PM,18002022022,18.5893901,73.996815
 PH Undri Pune ,"Shop No 14 & 15, Urban Nest, VTP Realty, Undri Chowk, Undri, Pune - 412308",Open until 11:00 PM,18002022022,18.44941831,73.91281419
 PH Keshav Nagra Solapur ,"No 164, Ashwath Infotech Building, Jawaharlal Housing Society, Keshav Nagar, Solapur - 413002",Open until 11:00 PM,18002022022,17.662701,75.906685
 PIZZA HUT FCD ,"Ground Floor, Kayamkhani Estate, Ambejoai Road, Latur - 413531",Open until 11:00 PM,18002022022,18.4016201,76.5645301
 Rajarampuri ,"Janta Bazaar, Rajarampuri, Kolhapur - 416001",Open until 11:00 PM,18002022022,16.698266,74.2427101
 PIZZA HUT FCD ,"Shop No G4 to 8, Shiv City Centre, Sangli Miraj Road, Walneswadi, Sangli - 416416",Open until 11:00 PM,18002022022,16.8424101,74.61136002
 Thane ,"Deshmukh Bldg, Dombivali East, Phadke Cross Road, Thane, Thane - 421201",Open until 11:00 PM,18002022022,19.21960556,73.09031667
 Dombivli East ,"SN 16, 3rd Flr, Food Court, Xperia Mall, Kalyan Shil Road, Palava, Dombivli East, Thane - 421204",Open until 11:00 PM,18002022022,19.165021,73.0744798
 Kalyan ,"9, 10, 11, The Big World Soman Suncity, Kalyan, Thane - 421301",Open until 11:00 PM,18002022022,19.2488386,73.142687
 PH Khadakpada Kalyan West ,"Shop No 3 & 4, Triveni Majesta, Wadeghar, Chanakya Ngr, Khadakpada, DB Chowk, Kalyan, Thane - 421301",Open until 11:00 PM,18002022022,19.26016955,73.12422446
 Metro junction mall ,"Unit No S7, 2nd Flr, Metro Junction Mall, Kalyan Shilphata Rd, Netivali, Kalyan, Thane - 421306",Open until 11:00 PM,18002022022,19.2296282,73.123502
" PH - GNP Galaxy, Ambernath ","Unit No 43A & 42/43, GNP Galaxy, PN F4/1 & F4/2, Kalyan Badlapur Rd, Kansai, Ambernath - 421501",Open until 11:00 PM,18002022022,19.2201736,73.1724762
 PIZZA HUT FCD ,"Shop No 1 to 8, Pranali Park, Belavli, Badlapur, Badlapur - 421503",Open until 11:00 PM,18002022022,19.1761901,73.22526002
 Shivaji Nagar ,"Shop No 4, Pratik Arcade, Nashik Pune Road, Shivaji Nagar, Nashik - 422001",Open until 11:00 PM,18002022022,19.9790051,73.8075642
 Thatte Nagar ,"Plot No 456, Ground Floor, Metro 99, Off College Road, Thatte Nagar, Nashik - 422005",Open until 11:00 PM,18002022022,20.007048,73.763684
 PH Beed By Pass ,"No 107 & 108, Gr Flr, Khatod Landmark, Survey No 22, Beed by pass, Shahnoorwadi, Aurangabad - 431001",Open until 11:00 PM,18002022022,19.850051,75.341131
 PIZZA HUT FCD Aurangabad ,"Shop No 1, Ground Floor, Oberori Chember, CTS No 13168, Dudh Dairy Signal, Aurangabad - 431001",Open until 11:00 PM,18002022022,19.875266,75.33387002
 Chikhalthana ,"R 5A, 1st Flr, Prozone Mall, P80 MIDC, Chikhalthana, Aurangabad - 431005",Open until 11:00 PM,18002022022,19.87692778,75.37220833
 PH Waluj ,"Plot No P28, MBJ Tower, MIDC, Maharana Pratap Chowk, Bajaj Nagar, Waluj, Aurangabad - 431136",Open until 11:00 PM,18002022022,19.839911,75.241511
 PH Shivaji Nagar Nanded ,"111C, GF, Cooperative Industrial Estate, Nanded Waghala, Vishnu Nagar, Nanded - 431602",Open until 11:00 PM,18002022022,19.1664801,77.305266
 Ph-Poonam Chamber ,"SN 5 to 7, Gr Flr, Poonam Chambers, Chawani, Nagpur - 440001",Open until 11:00 PM,18002022022,21.171271,79.079411
" Trillium Mall, Nagpur ","No 2, Food Court, 3rd Flr, Trilium Mall, Rambagh Layout, Untkhana, Ayodhya Nagar, Nagpur - 440003",Open until 11:00 PM,18002022022,21.1322678,79.096874
" PH Wardhaman Nagar, Nagpur ","PN 278, Ground Floor, Central Avenue, Wardhman Nagar, Nagpur - 440008",Open until 11:00 PM,18002022022,21.148305,79.133458
 South Ambazari Rd ,"No 1435, Meghdoor Heights, Shraddhanandpeth Sq, South Ambazari Rd, Nagpur - 440010",Open until 11:00 PM,18002022022,21.125825,79.06143056
 Sitabuldi ,"SN F1 & F2, 1st Floor, Eternity Mall, Variety Square, Sitabuldi, Nagpur - 440012",Open until 11:00 PM,18002022022,21.143289,79.0804401
 PH Singjimai Imphal ,"Ground Floor, Moiranglhom, Imphal - 795001",Open until 11:00 PM,18002022022,24.79400245,93.94165461
 PH Airport Road Imphal ,"Ground Floor, Urban Square, Tiddim Road, Imphal East - 795140",Open until 11:00 PM,18002022022,24.76988905,93.90057231
 Police Bazaar ,"1st Floor, JM Tower, Police Bazaar, Shillong - 793001",Open until 11:00 PM,18002022022,25.5767797,91.8812015
 PH Khatla Aizawl ,"Shop No E28, Khatla Bazaar, Khatla Kawn, Khatla, Aizawl - 796001",Open until 11:00 PM,18002022022,23.72056091,92.71624408
 PH Chanmari Aizawl ,"E 27, 1st Floor, Chanmari, Aizawl - 796009",Open until 11:00 PM,18002022022,23.74142611,92.71725019
 PH Cilcular Road Dimapur ,"Nagi House, Circular Road, Dimapur - 797112",Open until 11:00 PM,18002022022,25.91152019,93.71988061
 PH Baramunda Bhubaneswar ,"Plot No 10P & 12P, Baramunda, Bhubaneswar - 751003",Open until 11:00 PM,18002022022,20.2786139,85.79707712
 Kharvel Nagar ,"Unit 3, Ground Floor, Forum Mart, 89, Industrial Area, Kharvel Nagar, Bhubaneswar - 751007",Open until 11:00 PM,18002022022,20.2781347,85.8456713
 Kalpana Square ,"No FC 307 & 308, Utkal Kanika Galleria, Kalpana Square, Bhubaneswar - 751007",Open until 11:00 PM,18002022022,20.256291,85.839374
 Rasulgarh ,"FS 206, 2nd Floor, Esplanade Mall, Rasulgarh, Bhubaneswar - 751010",Open until 11:00 PM,18002022022,20.29121937,85.85596126
 PH XIMB Square Jaydev Vihar ,"P1 & P1/A, XIMB Square, Nandankanan Rd, Gajapati Nagar, Khorda - 751013",Open until 11:00 PM,18002022022,20.3075201,85.820764
 PH DN Regalia Mall Bhubaneswar ,"Food Court, DN Regalia Mall, Kalinga Vihar, Patrapada, Bhubaneswar - 751019",Open until 11:00 PM,18002022022,20.24097541,85.75825886
 PH Patia Bhubaneswar ,"PN 62 & 63, Chandaka Industrial Estate, KIIT Road, Patia, Bhubaneswar - 751024",Open until 11:00 PM,18002022022,20.354122,85.817396
 PH Baxi Bazar Cuttack ,"Plot No 350/934, 935 to 937, Unit 10, Cuttack Town, Cantonment, Cuttack - 753001",Open until 11:00 PM,18002022022,20.4764985,85.86945052
 PH Utkal Centre Point Jajpur ,"Shop 3, Utkal Centre Point, Jajpur Road, Byasanagar, Jajpur - 755019",Open until 11:00 PM,18002022022,20.9518904,86.1305605
 PH Ainthapali Sambalpur ,"Ainthapali Chowk, Kainsir, Sambalpur - 768004",Open until 11:00 PM,18002022022,21.49404485,83.98649837
 Venkata Subha Reddiar Salai ,"No 07, SN 42, 3rd Floor, Providence Mall, Venkata Subha Reddiar Salai, Puducherry - 605001",Open until 11:00 PM,18002022022,11.9297801,79.8100101
 Sector 118 ,"S12A, 2nd Floor, North Country Mall, Sector 118, Sahibzada Ajit Singh Nagar - 140301",Open until 11:00 PM,18002022022,30.73876616,76.67933832
" Kharar, Sector 125 ","SCO 62, Ground Floor, City Heart, Greater Mohali, Kharar, Sector 125, Sahibzada Ajit Singh Nagar - 140301",Open until 11:00 PM,18002022022,30.745328,76.652934
" PH Landra Road, Kharar ","SCO 2 & 3, UGF, The Gold Square, Kharar, Sector 116, Sahibzada Ajit Singh Nagar - 140301",Open until 11:00 PM,18002022022,30.718199,76.654186
 Sector 82 ,"SCO 35, Gr Flr, JLPL Industrial Area, Sector 82, Mohali - 140308",Open until 11:00 PM,18002022022,30.6600309,76.7357961
 Rajpura ,"Eagle Motel, NH 1, Delhi Highway, Rajpura, Patiala - 140401",Open until 11:00 PM,18002022022,30.4861542,76.6038929
 Zirakpur ,"SN TF 01, 3rd Floor, Cosmo Plaza Mall, Ambala Chandigarh Highway, NH 22, Zirakpur, Zirakpur  - 140603",Open until 11:00 PM,18002022022,30.637371,76.821755
 SAS Nagar ,"Shop No 12/12A, Gr Flr, Sushma Capital, Ghazipur Junction, Kishanpura, SAS Nagar, Zirakpur  - 140603",Open until 11:00 PM,18002022022,30.653445,76.850849
 Baltana Zirakpur ,"SCO 7, Kalgidhar Enclave, Shimla Highway, Baltana, Mohali - 140604",Open until 11:00 PM,18002022022,30.660604,76.828064
 Sarabha Nagar ,"Unit No 18, Upper Ground Floor, Kipps Market, Sarabha Nagar, Ludhiana - 141001",Open until 11:00 PM,18002022022,30.892551,75.8222201
 Ferozpur Road ,"4th Floor, West End Mall, Ferozpur Road, Ludhiana - 141001",Open until 11:00 PM,18002022022,30.88575867,75.78824177
 Old Session Court Road ,"No FC 1B, 3rd Floor, Pavilion Mall, Old Session Court Road, Ludhiana - 141001",Open until 11:00 PM,18002022022,30.9160736,75.8408038
 PH Dugri Ludhiana ,"SCF 16, Urban State, Phase 1, Dugri, Ludhiana - 141002",Open until 11:00 PM,18002022022,30.87367879,75.84328938
 Lalbagh ,"SN 9,Ground Floor, Grand walk Mall, Ferozpur Road, B Blk, Aggar Nagar, Lalbagh, Ludhiana - 141012",Open until 11:00 PM,18002022022,30.8867401,75.7909701
 GT Road ,"No 39 & 40, GF, The Celebration Bazar, GT Road, Khanna - 141401",Open until 11:00 PM,18002022022,30.6865461,76.2524804
 PH Main Bazar Moga ,"23 & 4B/9/A1, Gr & 1st Flr, Main Bazar, Kotkapura Moga Road, Krishna Nagar, Moga - 142001",Open until 11:00 PM,18002022022,30.815624,75.171501
 PH Sunview Enclave Ludhiana ,"Sco No 4 & 5, Sunview Enclave, Ayali Kalan, Ludhiana - 142027",Open until 11:00 PM,18002022022,30.8991579,75.7615784
 White Avenue ,"No C4, QSR 4, Wing B, 5th Flr, Trillium, Circular Road, White Avenue, Amritsar - 143001",Open until 11:00 PM,18002022022,31.658696,74.878657
 GT Road ,"S 033, 2nd Floor, Mall of Amritsar, MBM Farm, GT Road, Amritsar - 143001",Open until 11:00 PM,18002022022,31.6193699,74.908496
 Ram Bagh ,"Food Court, GT Road, Urban Haat, Maharaja Ranjit Singh Nagar, Ram Bagh, Amritsar - 143001",Open until 11:00 PM,18002022022,31.633816,74.879037
 PH Spirit Mall Amritsar ,"No 11 & 12, GF, Soul Space Spirit Mall, Grand Trunk Road, Model Town, Amritsar - 143105",Open until 11:00 PM,18002022022,31.630805,74.8159301
 Model Town ,"Unit No 188, Upper Ground Floor, Model Town, Jalandhar - 144003",Open until 11:00 PM,18002022022,31.308412,75.578262
 Civil Line ,"UGF, Leo Fort Hotel, BMC Chowk, Jalandhar Cantt, Jandiala Road, Civil Line, Jalandhar - 144006",Open until 11:00 PM,18002022022,31.3181701,75.5847601
 PH Ramneek Chowk Kapurthala ,"Ground Floor, Grover Tower, Sultanpur Rd, Ramneek Chowk, Circular Road, Ashok Vihar, Kapurthala - 144602",Open until 11:00 PM,18002022022,31.3722401,75.378833
 PH Downtown44 Pathankot ,"Shop No 2, Downtown 44, NH 44, Dadwal, Gurdaspur - 145025",Open until 11:00 PM,18002022022,32.28721582,75.59728849
 PH Mall Road Hoshiarpur ,"Plot No 1314 & 1315, UGF, The Mall Road, Ish Nagar, Fatehgarh, Hoshiarpur - 146001",Open until 11:00 PM,18002022022,31.5315943,75.91998627
 PH VRC City Mall Patiala ,"Shop No 01, GF, VRC City Mall, Rajpura Road, Heera Bagh Chaura, Patiala - 147001",Open until 11:00 PM,18002022022,30.33967834,76.43302444
 Bibi Wala Road ,"MCB No Z 210676, The Food Street, Bibi Wala Road, Bathinda - 151001",Open until 11:00 PM,18002022022,30.2200727,74.9547848
 GT Road ,"Shop No 07, Rose Garden Complex, GT Road, Bathinda - 151001",Open until 11:00 PM,18002022022,30.2305045,74.9333757
 Ripu Daman Singh Park ,"Shop No 4, 4th Floor, Ripu Daman Singh Park, Mohali - 160055",Open until 11:00 PM,18002022022,30.67350556,76.74024493
 Sector 59 ,"No 15, SCO 10, Phase 5, Ripu Daman Singh Park Road, Sector 59, Mohali - 160059",Open until 11:00 PM,18002022022,30.719166,76.7133801
 Sector 64 ,"SCF 53, Phase 10 Market, Sector 64, Mohali - 160062",Open until 11:00 PM,18002022022,30.68609167,76.738975
 Jail Circle ,"Gr Flr, Cross Point Mall, Shiv Complex, Jail Circle, Alwar - 301001",Open until 11:00 PM,18002022022,27.5805597,76.6149267
 PH Genesis Mall Bhiwadi ,"Shop No 58 & 54, Genesis Mall, Mega Highway, Bhiwadi, Bhiwadi - 301019",Open until 11:00 PM,18002022022,28.1915362,76.8139649
 Behror ,"Shop No C09, Plot No B/2, NH 8, Industrial Area, Behror, Behror - 301701",Open until 11:00 PM,18002022022,27.9012508,76.3030401
 MI Road ,"No 109, Ganapati Plaza, Sindhi Camp, MI Road, Jaipur - 302001",Open until 11:00 PM,18002022022,26.919412,75.80013001
 Godown Circle ,"No 22, Crystal Palm Mall, Plot No 2, Godown Circle, Jaipur - 302001",Open until 11:00 PM,18002022022,26.903256,75.792721
 Raja Park ,"B 26, Govind Marg, Raja Park, Jaipur - 302004",Open until 11:00 PM,18002022022,26.898199,75.822903
 Malviya Nagar ,"World Trade Park, Mahesh Park, D Block, Malviya Nagar, Jaipur - 302017",Open until 11:00 PM,18002022022,26.852974,75.804757
 Malviya Nagar ,"Showroom No 5, GF, GT Central Mall, Malviya Nagar, Jaipur - 302017",Open until 11:00 PM,18002022022,26.856301,75.8058002
 Vaishali Nagar ,"Shop No 20, F1, Evershine Tower, Amrapali Circle, Vaishali Nagar, Jaipur - 302021",Open until 11:00 PM,18002022022,26.911804,75.743849
 PH Vidhyadhar Nagar Jaipur ,"Shop No 39 & 40, City Star Complex, Central Spine, Vidyadhar Nagar, Sector 2, Jaipur - 302039",Open until 11:00 PM,18002022022,26.96551069,75.78141075
 Krishna Ganj Rd ,"SN 2, 325/5, Miraj Mall, Krishna Ganj Rd, Ajmer - 305001",Open until 11:00 PM,18002022022,26.471724,74.6332289
 PH Padmini Mall Chittorgarh ,"No G1 to 3, Maharani Padamini Mall, Gandhi Nagar, Sector 3, Chittorgarh - 312001",Open until 11:00 PM,18002022022,24.8822195,74.6353023
 Ashok Nagar ,"No 15, 1st Floor, Lake City Mall, Shastri Marg, Ashok Nagar, Udaipur - 313001",Open until 11:00 PM,18002022022,24.586343,73.710278
" PH Urban Square Mall, Udaipur ","Plot No F210 to 223, Gaurav Path, Udyog Vihar, RIICO Industrial Area, Sukher, Udaipur - 313001",Open until 11:00 PM,18002022022,24.632442,73.713297
 PH Celebration Mall Udaipur ,"No 8, Food Court, Forum Celebration Mall, NH 8, Bhuwana, Udaipur - 313004",Open until 11:00 PM,18002022022,24.61258022,73.70218238
 Inderprastha Ind Area ,"A 15, Upper Ground Floor, Main Jhalawar Road, Inderprastha Ind Area, Kota - 324005",Open until 11:00 PM,18002022022,25.1395352,75.8526993
 PH Landmark City Kota ,"Plot No A62, Landmark Scheme, Kunhari, Ladpura, Kota - 324008",Open until 11:00 PM,18002022022,25.20102642,75.830699
 PH Cine Mall Sikar ,"No 10, Ground Floor, Cine Mall, Rani Sati Road, Devipura, Sikar - 332001",Open until 11:00 PM,18002022022,27.600883,75.145421
 Ravinder Path ,"Plot 25, Ground Floor, A Block, Public Park, Ravinder Path, Sriganganagar - 335001",Open until 11:00 PM,18002022022,29.9270261,73.870648
 Sardarpura ,"No 673, C/2, 11C Road, Sardarpura, Jodhpur - 342003",Open until 11:00 PM,18002022022,26.274216,73.007296
 Paota ,"Plot No B1, B2, B3 & B4, Ghanshyam Bhawan, Mandor Road, Paota, Jodhpur - 342007",Open until 11:00 PM,18002022022,26.3010901,73.0385401
 PH Metro Point Gangtok ,"Friends Metro Point, MG Marg, East Sikkim - 737101",Open until 11:00 PM,18002022022,27.330481,88.612125
 PH Tadong Gangtok ,"Ground Floor, Gairi Gaon, NH 31 A, Tadong, Gangtok - 737102",Open until 11:00 PM,18002022022,27.31555753,88.60146209
 RK Salai ,"No 73, Ace Tower, RK Salai, Chennai - 600004",Open until 11:00 PM,18002022022,13.044721,80.265786
 Kilpauk ,"Door No 43, Plot No 3, Old No 2/3, Garden Road, Kilpauk, Chennai - 600010",Open until 11:00 PM,18002022022,13.085532,80.2396501
 Royapetta ,"No 49 & 50L, 3rd Flr, Express Avenue, Whites Road, Royapetta, Chennai - 600014",Open until 11:00 PM,18002022022,13.058441,80.264444
 Vadapalani ,"183, No 303A, 3rd Flr, Forum Vijaya Mall, NSK Salai, Vadapalani, Chennai - 600026",Open until 11:00 PM,18002022022,13.051086,80.209765
 Meenambakkam ,"Chennai Domestic Airport, GST Road, Meenambakkam, Kanchipuram - 600027",Open until 11:00 PM,18002022022,12.984228,80.167345
 Nungambakkam ,"G 2/3, 312, Gee Gee Emerald, Valluvar Kottam High Road, Nungambakkam, Chennai - 600034",Open until 11:00 PM,18002022022,13.0653301,80.243118
 Nolumbur ,"Shop No 99, Plot No 99, 1st Floor, West Mogappair, Main Road, Nolumbur, Tiruvallur - 600037",Open until 11:00 PM,18002022022,13.080844,80.163951
 Anna Ngr ,"No 44, Shop No S7 & S8, VR Mall, Pillaiyar Koil St, Inner Ring Rd, Anna Ngr, Chennai - 600040",Open until 11:00 PM,18002022022,13.0801401,80.2002901
 Anna Nagar ,"Plot No 995/J, No 172, 2nd Avenue, Anna Nagar, Chennai - 600040",Open until 11:00 PM,18002022022,13.085532,80.204122
 East Coast Road ,"No 4/222, Ground Floor, Palavakkam Main Road, East Coast Road, Chennai - 600041",Open until 11:00 PM,18002022022,12.9569301,80.2555201
 Velachery ,"Shop No F47, Phoenix Market City Mall, Plot No 142, Velachery Road, Velachery, Chennai - 600042",Open until 11:00 PM,18002022022,12.9911844,80.216797
 Velachery ,"No 185, Tambaram Road, Vijaya Nagar, Velachery, Chennai - 600042",Open until 11:00 PM,18002022022,12.9724116,80.2191433
 Chrompet ,"412/7A, KAP Annexure, GST Road, Chrompet, Chennai - 600044",Open until 11:00 PM,18002022022,12.9581601,80.144442
 Pizza hut - Avadi ,"No 128/1, New No 237/1, 1st Floor, NM Road, Avadi, Tiruvallur - 600054",Open until 11:00 PM,18002022022,13.116939,80.097173
 Kattupakkam ,"Door No 2/110, SN 184/1B, Mount Poonamallee Road, Kattupakkam, Chennai - 600056",Open until 11:00 PM,18002022022,13.04356809,80.12073341
 PH East Tambaram ,"Shop No 257, Velachery Road, Sembakkam, Rajakipakkam, Chennai - 600073",Open until 11:00 PM,18002022022,12.922682,80.151992
 PH Selaiyur ,"No 2, Ground Floor, Tejraj Colony, Agaram Main Road, Selaiyur, Chennai - 600073",Open until 11:00 PM,18002022022,12.906609,80.142772
 Pizza hut - Pammal ,"Shop No 13, 1st Floor, YAK Complex, Pammal Main Road, Pammal, Kanchipuram - 600075",Open until 11:00 PM,18002022022,12.971499,80.142319
 FCD Perambur ,"S No B57, New No 48, Siva Elango Salai, 70 feet Road, Periyar Nagar, Perumbur, Chennai - 600082",Open until 11:00 PM,18002022022,13.114278,80.227361
 Ashok Nagar ,"Old No 67, New No 41, 4th Avenue, Ashok Nagar, Chennai - 600083",Open until 11:00 PM,18002022022,13.040959,80.215599
 Mahindra City ,"Planet Yum Food Court, The Canopy, Mahindra City, Chennai - 600083",Open until 11:00 PM,18002022022,12.730815,80.000473
 Ashok nagar CMRL ,"Unit No 2, Ground Floor, Phase 1, CMRL, Ashok Nagar, Chennai - 600083",Open until 11:00 PM,18002022022,13.034187,80.209354
 Nandambakkam ,"DLF IT Park, Shivaji Gardens, Ramapuram, Nandambakkam, Kanchipuram - 600089",Open until 11:00 PM,18002022022,13.023594,80.175229
 FCD Adambakkam ,"No 265/3, Shop No 2, Ground Floor, Vanuwampet, Gandhi Street, Adambakkam, Chennai - 600091",Open until 11:00 PM,18002022022,12.980229,80.199042
 Pizza hut - Virugambakkam ,"Unit No 1, 1st Floor, 132/1, Arcot Road, Virugambakkam, Chennai - 600092",Open until 11:00 PM,18002022022,13.047373,80.1949301
 Perungudi ,"PN 111, DN 7, Thirumalai Nagar Annexe, OMR, Perungudi, Chennai - 600096",Open until 11:00 PM,18002022022,12.958059,80.243816
 OMR Road ,"Old No 1/14 , New No 1 /4, Karapakkam, OMR Road, Chennai - 600096",Open until 11:00 PM,18002022022,12.921851,80.229972
 PH - Chrompet ,"No 05, Kamakshi Colony, GST Road, Chromepet, Tambram Sanatorium, Chennai - 600116",Open until 11:00 PM,18002022022,12.943162,80.134088
 Guduvancherry ,"No 1, Ground Floor, GST Rd, Thailavaram, Potheri, Chengalpattu, Kanchipuram - 603202",Open until 11:00 PM,18002022022,12.8295201,80.0444101
 Pizza hut - Madurai ,"No 19/3, Gr Flr, Vasuprathaas, 80 Feet Rd, Kk Nagar, Madurai - 625020",Open until 11:00 PM,18002022022,9.92937101,78.143711
 FCD Nagercoil ,"No 171A/3, 1st Floor, Jerrys Enclave, KP Road, Nagercoil, Nagercoil - 629001",Open until 11:00 PM,18002022022,8.17875101,77.423598
 Pizza Hut Salem ,"Plot No 7, Ground Floor, Brindavan Main Road, Alagapuram, Salem - 636016",Open until 11:00 PM,18002022022,11.677186,78.145426
 FCD Erode ,"No 604, 604/1, 605 to 607, Brough Road, Erode - 638001",Open until 11:00 PM,18002022022,11.337479,77.711879
 Dr Krishnasamy Mudaliyar Road ,"3rd Floor, Brookefields Mall, Dr Krishnasamy Mudaliyar Road, Coimbatore - 641001",Open until 11:00 PM,18002022022,11.009511,76.959017
 RS Puram ,"No 357, Silver Monnt Building, DB Road, RS Puram, Coimbatore - 641002",Open until 11:00 PM,18002022022,11.006937,76.950931
 Peelamedu ,"2nd Floor, Fun Republic Mall, Avinashi Road, Peelamedu, Coimbatore - 641004",Open until 11:00 PM,18002022022,11.024686,77.0107591
 PH - Avinashi road ,"Unit No 1258/1260, Avinashi Road, Peelamedu, Coimbatore - 641004",Open until 11:00 PM,18002022022,11.018133,76.990576
 PH - Thudiyalur ,"No 33/1, Mettupalayam Road, Thudiyalur, Coimbatore - 641034",Open until 11:00 PM,18002022022,11.068803,76.94311002
 Ganesh Nagar ,"Prozone Mall, Saravanampatty Road, Ganesh Nagar, Coimbatore - 641035",Open until 11:00 PM,18002022022,11.055935,76.993969
 PH - OOTY ,"No 355A/1, 1st Flr, The Nilgiris Complex, No 1766/6, Commercial Road, Udhagamandalam, Ooty - 643001",Open until 11:00 PM,18002022022,11.411361,76.707674
 Begumpet ,"KPR House, SP Road, Begumpet, Hyderabad - 500003",Open until 11:00 PM,18002022022,17.443219,78.4796401
 Nacharam ,"Spar Super Market Bldg, Paradise Mall, Nacharam, Hyderabad - 500003",Open until 11:00 PM,18002022022,17.425857,78.549563
 SD Road ,"Shop No 1 & 2, No 1/1/58/1 & 2, SD Road, Hyderabad - 500003",Open until 11:00 PM,18002022022,17.440897,78.493907
 Toli Chowki ,"8/1/301/303, 1st Floor, West World, Aziz Bagh Colony, D Block, Toli Chowki, Hyderabad - 500008",Open until 11:00 PM,18002022022,17.407025,78.402008
 Sapphire Foods LTS ,"H No 5/72/11, Plot No 11, Ground Floor, Survey No 542, Alwal, Secunderabad - 500010",Open until 11:00 PM,18002022022,17.506381,78.496591
 PH Green Hills Road Moosapet ,"D No 10/135/7, Gr Flr, Anjaneya Nagar, Green Hills Rd, Moosapet, Hyderabad - 500018",Open until 11:00 PM,18002022022,17.4690459,78.4163248
 PH Sanath Nagar Hyderabad ,"Shehnai Function Hall, SKY Mall, Main Road, Czech Colony, Sanath Nagar, Hyderabad - 500018",Open until 11:00 PM,18002022022,17.45676344,78.43813249
 Serilingampally ,"Plot No 22, Ground Floor, Nallagandla Road, Serilingampally, Rangareddy - 500019",Open until 11:00 PM,18002022022,17.4798616,78.3164345
 Chikkadpally ,"No 1/1/101, RTC Cross Road, Chikkadpally, Hyderabad - 500020",Open until 11:00 PM,18002022022,17.40698333,78.49613889
 PH Karkhana ,"Gr Flr, Narayana Medical Campus Bldg, Karkhana, Hyderabad - 500026",Open until 11:00 PM,18002022022,17.462826,78.501296
 PH Kachiguda Hyderabad ,"Shop No 03, Gr Flr, Ganeriwal Complex, Kachiguda Station Road, Hyderabad - 500027",Open until 11:00 PM,18002022022,17.388943,78.497018
 PH Gudimalkapur Mehdipatnam ,"Inner Ring Road, Noor Ghat, Gudi Malkapur, Mehdipatnam, Hyderabad - 500028",Open until 11:00 PM,18002022022,17.38760719,78.43029598
 PH Himayatnagar Hyderabad ,"No 3/6/269/G3 to G5 & G8, Gowlikar House, Narayanguda Road, Himayatnagar, Hyderabad - 500029",Open until 11:00 PM,18002022022,17.3988492,78.4852978
 Nanakramguda ,"No 01, Sy No 115/1, Kapil Towers, ISB Rd, Financial Dist, Gachibowli, Nanakramguda, Hyderabad - 500032",Open until 11:00 PM,18002022022,17.4218649,78.3388389
 Gachibowli ,"PN 126, Vinayak Nagar, Gachibowli, Hyderabad - 500032",Open until 11:00 PM,18002022022,17.441672,78.358031
 PH Jubilee Hills Hyderabad ,"No 2, Plot No 120, Divya Sai Enclave, HN 8/2/293/82/A/23, Rd No 5, Jubilee Hills, Hyderabad - 500033",Open until 11:00 PM,18002022022,17.4309401,78.421094
 Banjara Hills ,"D No 8/2/699/2, Road No 12, Bhola Nagar, Amudi Nagar, Banjara Hills, Hyderabad - 500034",Open until 11:00 PM,18002022022,17.407565,78.442314
 Nagarjuna Hills ,"Sy 1,1/2,1/3,3/2,6/1 & 6/2, L&T Mall, Nagarjuna Hills, Hyderabad - 500034",Open until 11:00 PM,18002022022,17.428909,78.450164
 Banjara Hills ,"Cafe 6/3/251, 251/1 & 251/5/6/7, Banjara Hills, Hyderabad - 500034",Open until 11:00 PM,18002022022,17.4193387,78.448425
 PH Kothapet Nagole Road ,"SN 01, H No 11/7/143, Dayakar Reddy Bldg, Huda Colony, Saroor Nagar, Hyderabad - 500035",Open until 11:00 PM,18002022022,17.3707118,78.540441
 Alkapuri ,"D No 5/1/2/269, Ground Floor, Neknampur, Alkapuri, Hyderabad - 500035",Open until 11:00 PM,18002022022,17.389862,78.368307
 Moosarambagh ,"L5, 4th Floor, L&T Metro Rail Mall, Food Court, Moosarambagh, Hyderabad - 500036",Open until 11:00 PM,18002022022,17.3715339,78.509659
 PH Chintal Road Hyderabad ,"Plot No 1 & 16, Gr Flr, Rukmini Estates, Main Road, Chintal, Quthbullapur, Hyderabad - 500037",Open until 11:00 PM,18002022022,17.48991573,78.45118286
 Sanjeev Reddy Nagar ,"Shop No 7/1/621/275, MIG 260/3RT, Sanjeev Reddy Nagar, Hyderabad - 500038",Open until 11:00 PM,18002022022,17.442255,78.444512
 PH DSL Virtue Mall Uppal ,"B1/1, B1/2, B2/B & B2, DSL Virtue Mall, Ind Development Area, Ranga Reddy, Uppal, Hyderabad - 500039",Open until 11:00 PM,18002022022,17.399568,78.555266
 PH AMR Planet Mall ,"Sy No 373/1 & 373, 3, AMR Planet, 1 Rd, Trimulghery ECIL Rd, Extn, Moula Ali, Hyderabad - 500040",Open until 11:00 PM,18002022022,17.46353301,78.56074051
 New Nallakunta ,"Flat No 103 & 203, SPICA Apartments, Bearing No 2/2/1130/8&8/A1, New Nallakunta, Hyderabad - 500044",Open until 11:00 PM,18002022022,17.398825,78.512604
 Malakpet ,"No 16/11/19/9/A D, Saleem Nagar, Malakpet, Hyderabad - 500048",Open until 11:00 PM,18002022022,17.37192265,78.5108871
 Attapur Bangalore Rd ,"Pillar No 119, M Cube Mall, Attapur Bangalore Rd, Hyderabad - 500048",Open until 11:00 PM,18002022022,17.371525,78.42969444
 Miyapur ,"Jayabharthis Kalpana, Mumbai Road, Miyapur, Hyderabad - 500049",Open until 11:00 PM,18002022022,17.49536389,78.35660556
 Madinaguda ,"3rd Floor, Food Court, GSM Mall, Madinaguda, Hyderabad - 500049",Open until 11:00 PM,18002022022,17.496695,78.3356801
 Qutbullapur ,"G5 & G10, Sy No 267 & 269, Siri Estate, Bachupally, Gram Panchayat, Qutbullapur, Rangareddy - 500055",Open until 11:00 PM,18002022022,17.527501,78.367861
 Pizza hut - Kompally 2 ,"SN A1 & A2, DN 1/115/1, Karuna Arcade, Kompally, Medchal, Qutbullapur, Rangareddy - 500055",Open until 11:00 PM,18002022022,17.542946,78.491936
 PH Malkajgiri ,"No 24/88/46, Syeds Manzil, Plot No 2, East Anand Bagh, Malkajgiri, Hyderabad - 500057",Open until 11:00 PM,18002022022,17.4583901,78.541826
 PH Nagaram Hyderabad ,"PN 1, Sy No 227, Chakripuram Cross Rd, Road No 3, Kapra, Secunderabad, Hyderabad - 500062",Open until 11:00 PM,18002022022,17.47932596,78.58599893
 PH IMax ,"Ground Floor, Prasadz IMAX, Khairtabad, Hyderabad - 500063",Open until 11:00 PM,18002022022,17.412807,78.465558
 Kompally ,"Survey No 95/1, NCL Habitats, Kompally, Hyderabad - 500067",Open until 11:00 PM,18002022022,17.5156677,78.480915
 Kukatpally ,"Srinivas Plaza, Sardar Patel Nagar, Hydernagar Village, Kukatpally, Hyderabad - 500072",Open until 11:00 PM,18002022022,17.4984964,78.3882117
 Keesara Mandal ,"Plot No 28, No 1/18/30/28, Kapra, AS Rao Nagar, Keesara Mandal, Hyderabad - 500072",Open until 11:00 PM,18002022022,17.479851,78.556941
 Kukatpally ,"3rd Floor, Forum Sujana Mall, Phase 6, KPHB, Kukatpally, Hyderabad - 500072",Open until 11:00 PM,18002022022,17.4842701,78.389078
 PH KPHB Metro Station Hyderabad ,"Concourse Level, KPHB Metro Station, Kukatpally, Hyderabad - 500072",Open until 11:00 PM,18002022022,17.49428787,78.40175713
 Saroornagar ,"Plot No 67, Chandrapuri Colony, LB Nagar, Road No 4, Saroornagar, Hyderabad - 500074",Open until 11:00 PM,18002022022,17.3446442,78.5542695
 PH Kokapet Hyderabad ,"Plot No 1 to 4, Power Welfare Society, Phoenix Greens School Rd, Kokapet, Rangareddy - 500075",Open until 11:00 PM,18002022022,17.3934025,78.3408957
 Santosh Nagar ,"Door No 9/7/211, Ground Floor, Santosh Nagar, Hyderabad - 500079",Open until 11:00 PM,18002022022,17.346403,78.508257
 PH Karmanghat Hyderabad ,"D No 10/1/74/8/2, Thapovan Colony, Sai Nagar, Champapet Rd, Saroor Nagar East, Hyderabad - 500079",Open until 11:00 PM,18002022022,17.344869,78.5293401
 PH Praga Mall Hyderabad ,"3rd Flr, Praga Mall Food Court, Bholakpur, Kavadiguda, Venkateswar Colony, Hyderabad - 500080",Open until 11:00 PM,18002022022,17.42333479,78.49503903
 AruNodaya Colony ,"No 198/6/51, Srishti towers, AruNodaya Colony, Hyderabad - 500081",Open until 11:00 PM,18002022022,17.445652,78.385893
 PH RMZ Skyview Hyderabad ,"No 10, 1st Floor, The Skyview, Sy No 83/1, Hitech City Main Rd, Raidurgam, Hyderabad - 500081",Open until 11:00 PM,18002022022,17.43289128,78.37507094
 Somajiguda Raj Bhavan Rd ,"D No 631090/B/4, Gr Flr, The Grand, Somajiguda Raj Bhavan Rd, Hyderabad - 500082",Open until 11:00 PM,18002022022,17.422903,78.462356
 Kothaguda ,"No 38 to 54, Unit No 4F/30, 4th Floor, Sarath City Capital Mall, Kothaguda, Hyderabad - 500084",Open until 11:00 PM,18002022022,17.4570748,78.3641994
 PH Khajaguda Hyderabad ,"4, Divyashree Techridge Commercial Cplx, Lanco Hills IT Park, Khajaguda, Rangareddy - 500089",Open until 11:00 PM,18002022022,17.41268138,78.36784867
 Manikonda ,"Plot No 35 & 36, Ground Floor, Lanco Hills, Manikonda, Rangareddy - 500089",Open until 11:00 PM,18002022022,17.406969,78.383549
 PH Pragathi Nagar Hyderabad ,"H No 06/53/1519 to 1527, Lahari Estates, Pragathi Nagar, Rangareddy - 500090",Open until 11:00 PM,18002022022,17.523508,78.3957074
 PH Suncity Hyderabad ,"Plot No 10, Ground & 1st Floor, Suncity, Survey No 9/7, Hydershakote, Hyderabad - 500091",Open until 11:00 PM,18002022022,17.366222,78.398017
 PH Peerzadiguda Boduppal ,"Shop No 5/107/2, Survey No 47, Buddha Nagar, Peerzadiguda, Boduppal, Hyderabad - 500092",Open until 11:00 PM,18002022022,17.4069405,78.5937154
 FCD Balapur ,"D No 6/152/1, SLNS Colony, Hyderabad - 500097",Open until 11:00 PM,18002022022,17.3204701,78.5198701
 PH Airport Hyderabad ,"No 5, Aero Plaza, Level C, Parking Level, Rajiv Gandhi Intnl Airport, Shamshabad, Hyderabad - 501218",Open until 11:00 PM,18002022022,17.237213,78.428757
 Sapphire Foods ,"Door No 14/81/60/1/12/A/1, Ground Floor, Beerumguda, Ameenpur, Hyderabad - 502032",Open until 11:00 PM,18002022022,17.526611,78.298371
 PH Siddipet ,"Survey No 1313, Block No 13, APHB Colony, Siddipet, Siddipet - 502103",Open until 11:00 PM,18002022022,18.089805,78.854859
 PH - Ashok nagar(HYD) ,"Shop No B/1, Sy No 21, 229 to 232,Gr Flr, Ramachandrapuram, Ashok Nagar, Medak - 502302",Open until 11:00 PM,18002022022,17.501845,78.311531
 PH Venu Mall Nizamabad ,"Shop No F3, 1st Floor, Venu Mall, Hyderabad Rd, Phulong Bridge, Pragathi Ngr, Nizamabad - 503001",Open until 11:00 PM,18002022022,18.6695747,78.1051631
 PH Karimnagar ,"H No 3/1 & 347/1, Ground Floor, Christian Colony Road, Karimnagar - 505001",Open until 11:00 PM,18002022022,18.443511,79.128103
 MG Road ,"H No 11/25/79/80, Gr Flr, Sai Towers, MG Road, Warangal - 506002",Open until 11:00 PM,18002022022,17.989511,79.599177
 PH-Hanamkonda ,"National Institute of Technology Campus, Hyderabad Warangal Hwy, Warangal - 506004",Open until 11:00 PM,18002022022,17.985911,79.525159
 PH Clock Tower Road Nalgonda ,"Sri Lakshmi Narasimha Swamy Colony, Main Road, Sai Sree Colony, Nalgonda - 508001",Open until 11:00 PM,18002022022,17.06439372,79.26541078
 PH Durgabari Road Agartala ,"Ground Floor, Palace Compound, Durgabari Road, Indranagar, Agartala - 799001",Open until 11:00 PM,18002022022,23.83419277,91.28155827
 NH 8 ,"Shop No F109, F110 & F111, VVIP Style, Raj Nagar Extn, NH 8, Ghaziabad - 201001",Open until 11:00 PM,18002022022,28.697114,77.428835
 PH EDM Ghaziabad ,"UN 21 & 22, 3rd Flr, East Delhi Mall, PN 1, Kaushambi Rd, Kaushambi, Ghaziabad - 201001",Open until 11:00 PM,18002022022,28.64139901,77.31696689
 Mohan Nagar ,"Anchor 1B, PN 160, GF, World Square Mall, Katori Mill, Mohan Nagar, Ghaziabad - 201002",Open until 11:00 PM,18002022022,28.67884278,77.38182765
 Sector 04 ,"No C/01B/GH/01, 3rd Flr, Gaur City Mall, Sector 04, Ghaziabad - 201009",Open until 11:00 PM,18002022022,28.605667,77.430215
" Vaishali, Sector 5 ","No 127/128, Ground Floor, Shopprix Mall, Vaishali, Sector 5, Ghaziabad - 201010",Open until 11:00 PM,18002022022,28.6427301,77.340912
 Kaushambi ,"S/10 & S/11A, 2nd Floor, Pacific Mall, Kaushambi, Ghaziabad - 201010",Open until 11:00 PM,18002022022,28.6465501,77.3181901
 Raj Nagar ,"Shop No D 21, RDC, Raj Nagar, Ghaziabad - 201012",Open until 11:00 PM,18002022022,28.67499764,77.43998934
 PH Sector 12 Vasundhara ,"PN 12, No 512, GF, Vasundhara, Maharaja Agarsain Marg, Sector 12, Ghaziabad - 201012",Open until 11:00 PM,18002022022,28.658403,77.364979
 Indirapuram ,"Shop No H6B, UGF, Jaipuria Sunrise Plaza, Plot No 12A, Ahinsa Khand 2, Indirapuram, Ghaziabad - 201014",Open until 11:00 PM,18002022022,28.640562,77.378349
 PH Shipra Mall Indrapuram ,"FC 6 & 7, 2nd Floor, Shipra Mall, Vaibhav Khand, Indrapuram, Ghaziabad - 201014",Open until 11:00 PM,18002022022,28.63405347,77.3703261
 Crossing Republik ,"Shop No 7, Paramount Symphony, Crossing Republik, Ghaziabad - 201016",Open until 11:00 PM,18002022022,28.62894529,77.44033467
 Sector 50 ,"Shop No B1/32, Central Market, Sector 50, Noida - 201301",Open until 11:00 PM,18002022022,28.57044238,77.36202188
 Sector 62 ,"KT 1 & 2, C 25, Stellar IT Park, Sector 62, Noida - 201301",Open until 11:00 PM,18002022022,28.61280336,77.36260057
 Sector 18 ,"B 408, 3rd Floor, DLF Mall Of India, Sector 18, Noida - 201301",Open until 11:00 PM,18002022022,28.56741157,77.32059717
 Sec 38A ,"3rd Floor, Food Court, The Great India Place Mall, Sec 38A, Noida - 201301",Open until 11:00 PM,18002022022,28.5674921,77.3257882
 Sector 32 ,"3rd Floor, Logix Mall Food Court, PN BW 58, Sector 32, Noida - 201301",Open until 11:00 PM,18002022022,28.5743501,77.3535901
 Sector 74 ,"UN 1 To 4, Ground Floor, North Eye Mall, West Wing, Sector 74, Noida - 201301",Open until 11:00 PM,18002022022,28.5723174,77.3881593
 PH Parsavnath Plaza Sec 27 Noida ,"Unit No G5, G7, G8, GF, Parsavnath Plaza, Sector 27, Noida - 201301",Open until 11:00 PM,18002022022,28.5775848,77.3287193
 PH Gulshan Mall 129 Noida ,"No 129, Plot No C3 & E1, Gulshan Mall, Noida Greater Noida Expressway, Sector 129, Noida - 201301",Open until 11:00 PM,18002022022,28.50831819,77.3870497
 Sector 110 ,"Shop No 4, Block A 3, Sector 110, Noida - 201304",Open until 11:00 PM,18002022022,28.5337841,77.3871026
 Sector 104 ,"Shop No KM 003, Ground Floor, Sector 104, Noida - 201304",Open until 11:00 PM,18002022022,28.5408885,77.3686074
 PH Paras One33 Mall Noida ,"No 10, 12, 24 & 25, GF, Paras One 33, Noida Expressway, Sector 133, Noida - 201304",Open until 11:00 PM,18002022022,28.510771,77.3693701
 PH Sec-119 Noida ,"2 & 3, Amrapali Platinum Shopping Arcade, Sector 119, Noida - 201304",Open until 11:00 PM,18002022022,28.587962,77.400103
 Sector 110 ,"Shop No 4, Block A 3, Sector 110, Noida - 201304",Open until 11:00 PM,18002022022,28.5337841,77.3871026
 PH World One Noida ,"S No G 18 & 19, GF, Tower B, World One, Sector 90, Noida - 201305",Open until 11:00 PM,18002022022,28.5121799,77.4111855
 Sector Beta 2 ,"Omaxe Connaught Place, Sector Beta 2, Noida - 201306",Open until 11:00 PM,18002022022,28.4879103,77.5144023
 Sector 61 ,"C134, Gr Flr, Supertech Shopprix Mall, Sector 61, Noida - 201307",Open until 11:00 PM,18002022022,28.59720031,77.36476008
 Sector 4 ,"UN G3C, GF, Galaxy Blue Sapphire Plaza, Plot No C03, Sector 4, Greater Noida - 201308",Open until 11:00 PM,18002022022,28.6079797,77.4369659
 PH Grand Venice Greater Noida ,"Plot No SH3, The Grand Venice Mall, Site 4, Greater Noida, Greater Noida - 201308",Open until 11:00 PM,18002022022,28.45259929,77.5263184
 Greater Noida ,"Ground Floor, Ansal Plaza, Greater Noida, Greater Noida - 201310",Open until 11:00 PM,18002022022,28.46420565,77.50803798
 Marris Rd ,"Saundra House, Marris Rd, Aligarh - 202001",Open until 11:00 PM,18002022022,27.8976713,78.0859033
 PH DM Road Bulandshahr ,"No 4/C15, Awas Vikas 1, Devpuri 2, DM Road, DM Colony, Bulandshahr - 203001",Open until 11:00 PM,18002022022,28.41557988,77.8459887
 Yamuna Express Way ,"Permanent Facility Complex, Food Court, Yamuna Express Way, Bulandshahr - 203201",Open until 11:00 PM,18002022022,28.366485,77.531333
 MG Road ,"No 8 to 10, 3rd Floor, Z Square Mall, MG Road, Kanpur - 208001",Open until 11:00 PM,18002022022,26.47329444,80.352774
 Swaroop Nagar ,"Shop No 113/143, GF, Gutaiya, Block C, Khalasi Line, Scheme No 7, Swaroop Nagar, Kanpur - 208001",Open until 11:00 PM,18002022022,26.48126081,80.3166114
 PH Gurdev Palace Sharda Nagar ,"Gaurav Palace, 117/483Q, Sharda Nagar, GT Road, Lakhanpur, Kanpur - 208002",Open until 11:00 PM,18002022022,26.49059928,80.28500238
 PH Saket Nagar Kanpur ,"No 127/195 & W1, Juhi Kalan, Saket Nagar, Kanpur - 208014",Open until 11:00 PM,18002022022,26.435305,80.308765
 Civil lines ,"Shop No 31/31, SP Marg, Civil lines, Prayagraj - 211001",Open until 11:00 PM,18002022022,25.456399,81.8351955
 PH MG Marg Prayagraj ,"No 7/3, A/1, Gr Flr, Hotel UR Complex, MG Marg, Civil Lines, Prayagraj - 211001",Open until 11:00 PM,18002022022,25.45050317,81.83044466
 PH AVS Plaza Shivpur Varanasi ,"AVS Plaza, Shivpur Bypass Rd, Laxmanpur, Shivpur, Varanasi - 221001",Open until 11:00 PM,18002022022,25.35607203,82.96573407
 Cantonment Mall Road ,"FC 04, 2nd Floor, Food Court, JHV Mall, PN 3, Khata No 1, Mall Road, Cantonment, Varanasi - 221002",Open until 11:00 PM,18002022022,25.335428,82.977672
 PH Paharia Road Varanasi ,"UGF, Hotel Surabhi International, Paharia Road, Srinagar Colony, Varanasi - 221007",Open until 11:00 PM,18002022022,25.356955,83.00808001
 PH Sigra Varanasi ,"No C19/187/13, Gulab Bagh Colony, K Fatman Road, Sigra, Varanasi - 221010",Open until 11:00 PM,18002022022,25.3193359,82.9912264
 Aashiana ,"K 834, Ground Floor, Kanpur Road Scheme, Aashiana, Lucknow - 226001",Open until 11:00 PM,18002022022,26.79487778,80.916725
 Shahnajaf Road ,"SN 416, 4th Floor, Saharaganj Mall, Shahnajaf Road, Lucknow - 226001",Open until 11:00 PM,18002022022,26.85550556,80.9454111
" Gomti Nagar, Sector 7 ","SN S19, 2nd Floor, Phoenix Palassio Mall, Ardonamau, Gomti Nagar, Sector 7, Lucknow - 226002",Open until 11:00 PM,18002022022,26.8086201,81.012776
 PH Thakurganj Chowk Lucknow ,"No 439 B/065, Manjutandon Chauraha, Thakurganj, Lucknow - 226003",Open until 11:00 PM,18002022022,26.87277721,80.8887937
 Mahanagar ,"B 939/A, Prem Jyoti Tower, Gole Market, Mahanagar, Lucknow - 226006",Open until 11:00 PM,18002022022,26.87334167,80.95725278
 Hazratganj ,"No 91, MG Marg, Hazratganj, Lucknow - 226008",Open until 11:00 PM,18002022022,26.84373333,80.94696944
 Terminal2 ,"Chaudhary Charan Singh Airport, Terminal2, Lucknow - 226009",Open until 11:00 PM,18002022022,26.7587401,80.8802301
 PH Antas Mall Lucknow ,"No CP 1/23, Antas Mall, Vardhan Khand, Gomti Nagar Extn, Sector 1, Lucknow - 226010",Open until 11:00 PM,18002022022,26.83622486,81.00203637
 Gomti Nagar ,"CP 198, Viraj Khand, Gomti Nagar, Lucknow - 226010",Open until 11:00 PM,18002022022,26.854531,81.0227136
 Gomti Nagar ,"SN 8 to 10, Ground Floor, West End Mall, Vibhuti Khand, Gomti Nagar, Lucknow - 226010",Open until 11:00 PM,18002022022,26.870159,80.9968601
 PH Phoenix United Mall Lucknow ,"FC 15, 4th Flr, Phoenix United Mall, LDA Colony, Kanpur Rd, Alambagh, Sector B, Lucknow - 226012",Open until 11:00 PM,18002022022,26.798962,80.8965901
 PH Vrindavan Yojna Lucknow ,"No 16/CP/201 , No 2, UGF, Vridanvan Colony, Lucknow - 226014",Open until 11:00 PM,18002022022,26.7502301,80.950785
 Vibhuti Khand ,"FC 1,SN 15 & 16, One Awadh Centre, Gomti Nagar, Vibhuti Khand, Lucknow - 226016",Open until 11:00 PM,18002022022,26.8624572,81.0101978
 PH Engineering College Road Aliganj ,"No 36, Jankipuram, Engineering College Rd, Aliganj, Sector A, Lucknow - 226021",Open until 11:00 PM,18002022022,26.90873489,80.94490582
 Faizabad Road ,"Unit No FC 12, 2nd Floor, Crown Mall, Plot No 22, Faizabad Road, Lucknow - 226028",Open until 11:00 PM,18002022022,26.888743,81.055458
 PH Lulu Mall Lucknow ,"2nd Floor, Food Court, Lulu Mall, Amar Shaheed Path, Golf City, Lucknow - 226030",Open until 11:00 PM,18002022022,26.783913,80.990711
 PH Kanal Road Raebareli ,"Ground Floor, Kanal Road, Nirala Nagar, Raebareli - 229001",Open until 11:00 PM,18002022022,26.21901379,81.24095524
 PH Civil Lines Shahjahanpur ,"No 2, Kaushik Parijat Complex, Civil Lines, Officers Colony, Shahjahanpur - 242001",Open until 11:00 PM,18002022022,27.890997,79.91298475
 Pilibhit By Pass Rd ,"S43, 2nd Floor, Phoenix United Mall, Pilibhit By Pass Rd, Bareilly - 243001",Open until 11:00 PM,18002022022,28.39468942,79.45664613
 Stadium Road ,"Tulip Towers, Stadium Road, Bareilly - 243005",Open until 11:00 PM,18002022022,28.376485,79.433995
 PH Buddhi Vihar Moradabad ,"Lata Shopping Mall, LIC Office Rd, Vikas Colony, Buddhi Vihar, Moradabad - 244001",Open until 11:00 PM,18002022022,28.83373769,78.74355631
 PH Salarpur Gajraula ,"Food Court, NH 24, Moradabad Delhi Highway, JP Ngr, Salarpur, Gajraula - 244235",Open until 11:00 PM,18002022022,28.83757911,78.2757381
 Harthala ,"Shaspur Bilari House, Kanth Road, Harthala, Moradabad - 244415",Open until 11:00 PM,18002022022,28.8704555,78.7456307
 PH Arjun Nagar Hapur ,"No G1, No A2, A2a, A4, A4a, A3 & A3a, Hapur Road, Rafiq Nagar, Hapur - 245101",Open until 11:00 PM,18002022022,28.72789319,77.76091232
 PH Civil Lines Bijnor ,"Ground & 1st Floor, Indian Tower, Najibabad Road, Civil lines, Bijnor - 246701",Open until 11:00 PM,18002022022,29.38189501,78.14073494
 PH Panchsheel Colony Garh Road Meerut ,"Plot 372 & 372/1, Gr Flr, The Galleria, Garh Road, Meerut - 250001",Open until 11:00 PM,18002022022,28.970225,77.7226501
 Shastri Nagar Mkt ,"I 187, PVS Mall, I Block, Shastri Nagar Mkt, Meerut - 250004",Open until 11:00 PM,18002022022,28.9527985,77.7316328
 PH Mseven Pallavpuram ,"AP & C4, Mseven, Block A, Pallavpuram, Meerut - 250110",Open until 11:00 PM,18002022022,29.05599787,77.70860499
 Bhainsi ,"Ground Floor, Delhi Haridwar Rd, Muzaffarnagar, Bhainsi, Muzaffarnagar - 251201",Open until 11:00 PM,18002022022,29.3098627,77.7218568
 Civil Lines ,"Shop No 7, 2nd Floor, City Mall, Food Court, Park Rd, Golghar, Civil Lines, Gorakhpur - 273001",Open until 11:00 PM,18002022022,26.753259,83.375131
 PH Medical Road Gorakhpur ,"Shop No 613/1, UGF, Rapti Complex, Medical College Road, Asuran Chowk, Gorakhpur - 273006",Open until 11:00 PM,18002022022,26.7721979,83.38213207
 NH 2 ,"U1 to 6, U19 to 24, Highway Plaza, Mauja Banger, NH 2, Mathura - 281001",Open until 11:00 PM,18002022022,27.4936727,77.6548016
 Mathura Highway ,"DIL, Food Street, Mauza Chamuha, Chhata, Mathura Highway, Mathura - 281001",Open until 11:00 PM,18002022022,27.593844,77.604467
 Vrindavan Cut ,"107 KM Milestone, Delhi to Agra Highway, Vrindavan Cut, Raya - 281204",Open until 11:00 PM,18002022022,27.550359,77.7555901
 Tajganj ,"No 8, Fatehabad Road, Handicraft Nagar, Tajganj, Agra - 282001",Open until 11:00 PM,18002022022,27.16169444,78.03471389
 Sanjay Place ,"Shop No 25, Deepshikha Towers, Sanjay Place, Agra - 282001",Open until 11:00 PM,18002022022,27.20122222,78.0079111
 Sikandra ,"Hotel Adhiraj Palace, Bodla Road, Sikandra, Agra - 282007",Open until 11:00 PM,18002022022,27.204057,77.953278
 Civil lines ,"No 943, Om Complex, Shivpuri Road, Civil lines, Jhansi - 284001",Open until 11:00 PM,18002022022,25.4495282,78.5656705
 PH Medical Road Jhansi ,"No 265, NH 25, Medical Road, Jhansi - 284128",Open until 11:00 PM,18002022022,25.45560517,78.61174058
 Civil Lines ,"No 2, NH 58, Civil Lines, Roorkee - 247667",Open until 11:00 PM,18002022022,29.8738846,77.893981
 Rajpur Road ,"No 542, Amity Amusement, Eleganza Mall, Rajpur Road, Dehradun - 248001",Open until 11:00 PM,18002022022,30.3428275,78.0581902
 Raj Vihar ,"C1/101, Commercial complex, ITBP Road, Indira Nagar Colony, Raj Vihar, Dehradun - 248001",Open until 11:00 PM,18002022022,30.3223711,78.0028519
 PH Haridwar Bypass Dehradun ,"Plot No 1591, UGF, Haridwar Bypass Road, Deheradun, Ajabpur Kalan, Dehradun - 248001",Open until 11:00 PM,18002022022,30.2889305,78.0437744
 PH Saharanpur Road Majra ,"GF, Hotel Glory, Shree ji Tower, Saharanpur Rd, Majra, Sewla Kalan, Dehradun - 248171",Open until 11:00 PM,18002022022,30.295888,78.0030941
 Batedi ,"National Food Court, NH 58, Bhonri Badheri Rajputana Road, Batedi, Haridwar - 249405",Open until 11:00 PM,18002022022,29.8999617,77.9865435
 PH Ranipur Mor Haridwar ,"Mitra Vatika , Vikas Colony, Ranipur More, Haridwar Main Rd, Govindpuri, Haridwar - 249410",Open until 11:00 PM,18002022022,29.93659252,78.13995561
 Kathgodam ,"Hydel Gate, Tedi Pulia, NH 87, Nainital, Kathgodam, Haldwani - 263139",Open until 11:00 PM,18002022022,29.2452622,79.5362576
 Nainital Road ,"Hotel Riverra, Nainital Road, Rudrapur - 263153",Open until 11:00 PM,18002022022,28.9872695,79.413661
 Shyam Bazaar ,"No 138/2, 93/2B, Bidhan Sarani, Hatibagan, Shyam Bazaar, Bankura - 700005",Open until 11:00 PM,18002022022,22.596154,88.371131
 Sarada Pally ,"18 Bigha, James Sarani Road, Behala, Muradpur, Sarada Pally, Kolkata - 700008",Open until 11:00 PM,18002022022,22.4895101,88.3169201
 Park Street ,"No 20 K, Sir William Jones Sarani, Park Street, Kolkata - 700016",Open until 11:00 PM,18002022022,22.5521831,88.3526856
 Ballygunge ,"No 33, 4th Floor, Quest Mall, Syed Amir Ali Ave, Ballygunge, Kolkata - 700017",Open until 11:00 PM,18002022022,22.538601,88.365405
 PH Ballygunge Kolkata ,"No 62/7/1A, Rowland Row, Ballygunge Circular Road, Ballygunge, Kolkata - 700019",Open until 11:00 PM,18002022022,22.53647559,88.35789852
 Kalighat ,"Shop No 404, 4th Floor, Lake Mall, No 104, Rash Behari Avenue, Kalighat, Kolkata - 700029",Open until 11:00 PM,18002022022,22.5165401,88.3490401
 Tollygunge ,"No 123/3, NSC Bose Road, Regent Col, Tollygunge, Kolkata - 700040",Open until 11:00 PM,18002022022,22.48001758,88.35490029
 PH Lake Town Kolkata ,"No 339, Gr Flr, Canal Street, VIP Crossing, Sreebhumi, Lake Town, Kolkata - 700048",Open until 11:00 PM,18002022022,22.5998143,88.40579697
 Dum Dum ,"No 83, Gate No 3C, NSCBI Airport, Kazi NazrulIslam Sarani, Dum Dum, Bankura - 700052",Open until 11:00 PM,18002022022,22.643013,88.4318701
 PH New Alipore Kolkata ,"No 573, Block N, New Alipore, Kolkata - 700053",Open until 11:00 PM,18002022022,22.508856,88.334658
 Kankurgachi ,"No 316 A, 3rd Floor, Mani Square Mall, 164/1, EM Bypass, Kankurgachi, Kolkata - 700054",Open until 11:00 PM,18002022022,22.57776534,88.40040531
 PH Muchipara Behala ,"No 406/N, New Shakuntala Park, Behala, Ho Chi Minh Sarani, Maheshtala, Kolkata - 700061",Open until 11:00 PM,18002022022,22.4856774,88.2864502
 Salt lake ,"A105, DC block, City Centre Mall, Salt lake, Kolkata - 700064",Open until 11:00 PM,18002022022,22.588213,88.408441
 Prince Anwar Shah Road ,"No 375, 4th Floor, Food Court, South City Mall, Prince Anwar Shah Road, Kolkata - 700068",Open until 11:00 PM,18002022022,22.501777,88.361682
 PH Nager Bazar Kolkata ,"No 14, WN 22, Primarc Shrachi Aangan, Motijheel, Dum Dum Road, Amarpalli, Kolkata - 700074",Open until 11:00 PM,18002022022,22.622039,88.411353
 PH Metropolis Mall Kolkata ,"UN C1, C2 & C3, 2nd Floor, Food Court, 1925, Chak Garia, Santoshpur, Kolkata - 700075",Open until 11:00 PM,18002022022,22.48318817,88.39084534
 PH Garia Kolkata ,"No 1648, Ward No 27, Garia Place, Maha Maya Talla, Ramkrishna Nagar, South 24 Parganas - 700084",Open until 11:00 PM,18002022022,22.4596352,88.3825561
 Salt Lake City ,"Nicco Park, Salt Lake City, Kolkata - 700106",Open until 11:00 PM,18002022022,22.57290732,88.4214402
 PH H.B Town Sodepur ,"E2, Sadhana Apartment, HB Town, Sodepur, Kolkata - 700114",Open until 11:00 PM,18002022022,22.69715867,88.39025141
 PH Barrackpore Kolkata ,"No 41/27, BT Road, Titagarh, North 24 Parganas - 700120",Open until 11:00 PM,18002022022,22.75605773,88.36884959
 Madhyamgram ,"Star Mall, Mira Garden, NH34, Sisir Kunj, Madhyamgram, Madhyamgram - 700129",Open until 11:00 PM,18002022022,22.703601,88.47119001
 Newtown ,"Ground Floor, City Centre 2, Block C, Rajarhat, Newtown, Kolkata - 700136",Open until 11:00 PM,18002022022,22.62309437,88.45048685
 PH Rosedale Plaza New Town ,"Rosedale Plaza Mall, Action Area 3, Newtown, Kolkata - 700160",Open until 11:00 PM,18002022022,22.5612347,88.490131
 PH Platina Mall Howrah ,"No 1, Howrah Railway Stn, Nityadhan Mukherjee Rd, Howrah - 711101",Open until 11:00 PM,18002022022,22.5812703,88.33258368
 Howrah Railway St ,"Gr Floor, Howrah Rail Yatri Niwas, Howrah Railway St, Howrah - 711101",Open until 11:00 PM,18002022022,22.5818801,88.342496
 Foreshore Road ,"No 32, 3rd Floor, Kajipara, Food Court, Jagat Banerjee Ghat Road, Foreshore Road, Howrah - 711102",Open until 11:00 PM,18002022022,22.56321987,88.32372934
 PH GT Road Liluah Howrah ,"No 243, North Liluah, Grand Trunk Rd, Howrah, Howrah - 711204",Open until 11:00 PM,18002022022,22.6202655,88.34839072
 Uttarpara ,"No 20 & 22B, Unimark Riviera, GT Road, Bhadrakali, Uttarpara, Hooghly - 712232",Open until 11:00 PM,18002022022,22.6747769,88.3520786
 PH Junction Mall Durgapur ,"Unit LG 17B, Junction Mall City Centre, Faridpur, Durgapur - 713216",Open until 11:00 PM,18002022022,23.53914571,87.29109701
 Sahid Khudiram Sarani ,"The Junction Mall City Centre, Sahid Khudiram Sarani, Durgapur - 713216",Open until 11:00 PM,18002022022,23.538765,87.291578
 BG Road ,"Ground Floor, Vivekanand Apartment, BG Road, Malda - 732101",Open until 11:00 PM,18002022022,24.9965478,88.1439612
 PH English Bazar Malda ,"Manaskamana Road, Kanir More, English Bazar, Malda - 732101",Open until 11:00 PM,18002022022,25.0109701,88.1365573
 Sevoke Road ,"No 12B, Upper Ground Floor, Cosmos Mall, 2nd Mile, Sevoke Road, Siliguri - 734001",Open until 11:00 PM,18002022022,26.738634,88.434399
 PH ML Acropolis Mall Siliguri ,"Ward No 13, 5th Floor, ML Acropolis Mall, Sevoke Road, Bankim Nagar, Siliguri - 734001",Open until 11:00 PM,18002022022,26.72974608,88.43135742
 Matighara ,"Shop G0009, Ground Floor, City Centre, Matighara, Siliguri - 734010",Open until 11:00 PM,18002022022,26.7246688,88.394464
 PH KN Road Berhampore ,"S No 101, GF, Holding Hotel White House, No 27, KN Road, Berhampore - 742101",Open until 11:00 PM,18002022022,24.09851068,88.25664224
